[{"type":"Feature","properties":{"name":"Maker's Tree (N: 767, E: 5440)","type":"makers-tree"},"geometry":{"type":"Point","coordinates":[16321,2300]}},{"type":"Feature","properties":{"name":"Maker's Tree (N: 698, E: 5983)","type":"makers-tree"},"geometry":{"type":"Point","coordinates":[17947,2093]}},{"type":"Feature","properties":{"name":"Maker's Tree (N: 844, E: 6245)","type":"makers-tree"},"geometry":{"type":"Point","coordinates":[18733,2531]}},{"type":"Feature","properties":{"name":"Maker's Tree (N: 1091, E: 6597)","type":"makers-tree"},"geometry":{"type":"Point","coordinates":[19793,3274]}},{"type":"Feature","properties":{"name":"Maker's Tree (N: 772, E: 6897)","type":"makers-tree"},"geometry":{"type":"Point","coordinates":[20691,2316]}},{"type":"Feature","properties":{"name":"Maker's Tree (N: 750, E: 7324)","type":"makers-tree"},"geometry":{"type":"Point","coordinates":[21972,2250]}},{"type":"Feature","properties":{"name":"Maker's Tree (N: 1010, E: 7056)","type":"makers-tree"},"geometry":{"type":"Point","coordinates":[21168,3031]}},{"type":"Feature","properties":{"name":"Maker's Tree (N: 1436, E: 6755)","type":"makers-tree"},"geometry":{"type":"Point","coordinates":[20264,4307]}},{"type":"Feature","properties":{"name":"Maker's Tree (N: 1240, E: 6357)","type":"makers-tree"},"geometry":{"type":"Point","coordinates":[19071,3720]}},{"type":"Feature","properties":{"name":"Maker's Tree (N: 1272, E: 5933)","type":"makers-tree"},"geometry":{"type":"Point","coordinates":[17800,3817]}},{"type":"Feature","properties":{"name":"Maker's Tree (N: 1679, E: 5902)","type":"makers-tree"},"geometry":{"type":"Point","coordinates":[17707,5038]}},{"type":"Feature","properties":{"name":"Maker's Tree (N: 1711, E: 6265)","type":"makers-tree"},"geometry":{"type":"Point","coordinates":[18797,5134]}},{"type":"Feature","properties":{"name":"Maker's Tree (N: 1898, E: 6007)","type":"makers-tree"},"geometry":{"type":"Point","coordinates":[18020,5695]}},{"type":"Feature","properties":{"name":"Maker's Tree (N: 2078, E: 6206)","type":"makers-tree"},"geometry":{"type":"Point","coordinates":[18617,6234]}},{"type":"Feature","properties":{"name":"Maker's Tree (N: 2088, E: 6667)","type":"makers-tree"},"geometry":{"type":"Point","coordinates":[20002,6265]}},{"type":"Feature","properties":{"name":"Maker's Tree (N: 1828, E: 6747)","type":"makers-tree"},"geometry":{"type":"Point","coordinates":[20240,5483]}},{"type":"Feature","properties":{"name":"Maker's Tree (N: 1885, E: 7016)","type":"makers-tree"},"geometry":{"type":"Point","coordinates":[21050,5656]}},{"type":"Feature","properties":{"name":"Hexite Deposit (N: 3972, E: 4774)","type":"hexite","timer":"2026-06-15T14:07:38.573Z"},"geometry":{"type":"Point","coordinates":[14323,11917]}},{"type":"Feature","properties":{"name":"Hexite Deposit (N: 3014, E: 4142)","type":"hexite","timer":"2026-06-16T06:37:11.462Z"},"geometry":{"type":"Point","coordinates":[12426,9043]}},{"type":"Feature","properties":{"name":"Hexite Deposit (N: 3362, E: 3687)","type":"hexite","timer":"2026-06-17T01:20:57.133Z"},"geometry":{"type":"Point","coordinates":[11061,10087]}},{"type":"Feature","properties":{"name":"Hexite Deposit (N: 2794, E: 2882)","type":"hexite","timer":"2026-06-15T09:46:32.768Z"},"geometry":{"type":"Point","coordinates":[8647,8382]}},{"type":"Feature","properties":{"name":"Hexite Deposit (N: 4555, E: 2820)","type":"hexite","timer":"2026-06-13T03:26:39.875Z"},"geometry":{"type":"Point","coordinates":[8462,13666]}},{"type":"Feature","properties":{"name":"Hexite Deposit (N: 4902, E: 4657)","type":"hexite","timer":"2026-06-16T06:57:07.869Z"},"geometry":{"type":"Point","coordinates":[13970,14707]}},{"type":"Feature","properties":{"name":"Hexite Deposit (N: 3399, E: 4748)","type":"hexite"},"geometry":{"type":"Point","coordinates":[14247,10198]}},{"type":"Feature","properties":{"name":"Hexite Deposit (N: 3879, E: 2893)","type":"hexite","timer":"2026-06-15T15:41:14.623Z"},"geometry":{"type":"Point","coordinates":[8682,11638]}},{"type":"Feature","properties":{"name":"Hexite Deposit (N: 4181, E: 4279)","type":"hexite"},"geometry":{"type":"Point","coordinates":[12838,12542]}},{"type":"Feature","properties":{"name":"Hexite Deposit (N: 4598, E: 3471)","type":"hexite","timer":"2026-06-15T05:17:17.719Z"},"geometry":{"type":"Point","coordinates":[10413,13795]}},{"type":"Feature","properties":{"name":"Hexite Deposit (N: 4361, E: 7208)","type":"hexite","timer":"2026-06-17T05:42:18.603Z"},"geometry":{"type":"Point","coordinates":[21626,13084]}},{"type":"Feature","properties":{"name":"Hexite Deposit (N: 3140, E: 6551)","type":"hexite"},"geometry":{"type":"Point","coordinates":[19654,9421]}},{"type":"Feature","properties":{"name":"Hexite Deposit (N: 3548, E: 5289)","type":"hexite","timer":"2026-06-14T06:47:24.796Z"},"geometry":{"type":"Point","coordinates":[15866,10643]}},{"type":"Feature","properties":{"name":"Hexite Deposit (N: 4675, E: 6067)","type":"hexite","timer":"2026-06-17T14:07:10.202Z"},"geometry":{"type":"Point","coordinates":[18203,14026]}},{"type":"Feature","properties":{"name":"Hexite Deposit (N: 3205, E: 7340)","type":"hexite","timer":"2026-06-15T02:46:49.233Z"},"geometry":{"type":"Point","coordinates":[22022,9616]}},{"type":"Feature","properties":{"name":"Hexite Deposit (N: 3794, E: 7532)","type":"hexite","timer":"2026-06-16T16:38:21.197Z"},"geometry":{"type":"Point","coordinates":[22595,11383]}},{"type":"Feature","properties":{"name":"Hexite Deposit (N: 4926, E: 6725)","type":"hexite","timer":"2026-06-17T00:00:57.454Z"},"geometry":{"type":"Point","coordinates":[20175,14778]}},{"type":"Feature","properties":{"name":"Hexite Deposit (N: 4216, E: 5489)","type":"hexite","timer":"2026-06-15T17:48:56.160Z"},"geometry":{"type":"Point","coordinates":[16465,12647]}},{"type":"Feature","properties":{"name":"Hexite Deposit (N: 3176, E: 5747)","type":"hexite","timer":"2026-06-13T19:16:10.952Z"},"geometry":{"type":"Point","coordinates":[17241,9529]}},{"type":"Feature","properties":{"name":"Hexite Deposit (N: 3885, E: 6409)","type":"hexite","timer":"2026-06-14T22:29:15.292Z"},"geometry":{"type":"Point","coordinates":[19228,11655]}},{"type":"Feature","properties":{"name":"Hexite Deposit (N: 3237, E: 8533)","type":"hexite","timer":"2026-06-14T06:13:22.806Z"},"geometry":{"type":"Point","coordinates":[25601,9710]}},{"type":"Feature","properties":{"name":"Hexite Deposit (N: 3956, E: 9090)","type":"hexite"},"geometry":{"type":"Point","coordinates":[27270,11869]}},{"type":"Feature","properties":{"name":"Hexite Deposit (N: 3189, E: 9226)","type":"hexite","timer":"2026-06-16T05:09:11.112Z"},"geometry":{"type":"Point","coordinates":[27678,9567]}},{"type":"Feature","properties":{"name":"Hexite Deposit (N: 4910, E: 8115)","type":"hexite","timer":"2026-06-17T06:45:14.929Z"},"geometry":{"type":"Point","coordinates":[24344,14731]}},{"type":"Feature","properties":{"name":"Hexite Deposit (N: 3637, E: 7925)","type":"hexite"},"geometry":{"type":"Point","coordinates":[23776,10912]}},{"type":"Feature","properties":{"name":"Hexite Deposit (N: 3224, E: 9950)","type":"hexite","timer":"2026-06-14T01:57:34.547Z"},"geometry":{"type":"Point","coordinates":[29850,9671]}},{"type":"Feature","properties":{"name":"Hexite Deposit (N: 4125, E: 9816)","type":"hexite","timer":"2026-06-13T06:49:18.129Z"},"geometry":{"type":"Point","coordinates":[29448,12374]}},{"type":"Feature","properties":{"name":"Hexite Deposit (N: 2701, E: 8112)","type":"hexite","timer":"2026-06-15T09:12:56.866Z"},"geometry":{"type":"Point","coordinates":[24338,8104]}},{"type":"Feature","properties":{"name":"Hexite Deposit (N: 4339, E: 8316)","type":"hexite","timer":"2026-06-17T11:01:13.936Z"},"geometry":{"type":"Point","coordinates":[24949,13016]}},{"type":"Feature","properties":{"name":"Hexite Deposit (N: 4592, E: 9483)","type":"hexite","timer":"2026-06-16T01:52:19.519Z"},"geometry":{"type":"Point","coordinates":[28448,13776]}},{"type":"Feature","properties":{"name":"Maker's Tree (N: 6864, E: 507)","type":"makers-tree"},"geometry":{"type":"Point","coordinates":[1520,20593]}},{"type":"Feature","properties":{"name":"Maker's Tree (N: 7085, E: 931)","type":"makers-tree"},"geometry":{"type":"Point","coordinates":[2794,21254]}},{"type":"Feature","properties":{"name":"Maker's Tree (N: 6798, E: 1585)","type":"makers-tree"},"geometry":{"type":"Point","coordinates":[4754,20395]}},{"type":"Feature","properties":{"name":"Maker's Tree (N: 6952, E: 1981)","type":"makers-tree"},"geometry":{"type":"Point","coordinates":[5943,20855]}},{"type":"Feature","properties":{"name":"Maker's Tree (N: 6654, E: 939)","type":"makers-tree"},"geometry":{"type":"Point","coordinates":[2815,19961]}},{"type":"Feature","properties":{"name":"Maker's Tree (N: 6635, E: 1880)","type":"makers-tree"},"geometry":{"type":"Point","coordinates":[5641,19904]}},{"type":"Feature","properties":{"name":"Maker's Tree (N: 6602, E: 647)","type":"makers-tree"},"geometry":{"type":"Point","coordinates":[1939,19805]}},{"type":"Feature","properties":{"name":"Maker's Tree (N: 6244, E: 717)","type":"makers-tree"},"geometry":{"type":"Point","coordinates":[2150,18731]}},{"type":"Feature","properties":{"name":"Maker's Tree (N: 6010, E: 953)","type":"makers-tree"},"geometry":{"type":"Point","coordinates":[2859,18031]}},{"type":"Feature","properties":{"name":"Maker's Tree (N: 6392, E: 1258)","type":"makers-tree"},"geometry":{"type":"Point","coordinates":[3773,19175]}},{"type":"Feature","properties":{"name":"Maker's Tree (N: 5991, E: 1287)","type":"makers-tree"},"geometry":{"type":"Point","coordinates":[3864,17974]}},{"type":"Feature","properties":{"name":"Maker's Tree (N: 6188, E: 1528)","type":"makers-tree"},"geometry":{"type":"Point","coordinates":[4584,18565]}},{"type":"Feature","properties":{"name":"Maker's Tree (N: 6385, E: 1666)","type":"makers-tree"},"geometry":{"type":"Point","coordinates":[5000,19155]}},{"type":"Feature","properties":{"name":"Maker's Tree (N: 6249, E: 1814)","type":"makers-tree"},"geometry":{"type":"Point","coordinates":[5444,18747]}},{"type":"Feature","properties":{"name":"Maker's Tree (N: 6156, E: 1999)","type":"makers-tree"},"geometry":{"type":"Point","coordinates":[5997,18469]}},{"type":"Feature","properties":{"name":"Maker's Tree (N: 5704, E: 2081)","type":"makers-tree"},"geometry":{"type":"Point","coordinates":[6242,17111]}},{"type":"Feature","properties":{"name":"Hexite Deposit (N: 5965, E: 2959)","type":"hexite","timer":"2026-06-15T00:01:00.075Z"},"geometry":{"type":"Point","coordinates":[8879,17896]}},{"type":"Feature","properties":{"name":"Hexite Deposit (N: 7220, E: 3090)","type":"hexite","timer":"2026-06-16T23:27:51.228Z"},"geometry":{"type":"Point","coordinates":[9270,21661]}},{"type":"Feature","properties":{"name":"Hexite Deposit (N: 6706, E: 2993)","type":"hexite","timer":"2026-06-14T09:59:47.603Z"},"geometry":{"type":"Point","coordinates":[8977,20117]}},{"type":"Feature","properties":{"name":"Hexite Deposit (N: 5622, E: 3856)","type":"hexite","timer":"2026-06-14T19:24:16.877Z"},"geometry":{"type":"Point","coordinates":[11567,16866]}},{"type":"Feature","properties":{"name":"Hexite Deposit (N: 6446, E: 3830)","type":"hexite","timer":"2026-06-18T09:23:19.603Z"},"geometry":{"type":"Point","coordinates":[11490,19339]}},{"type":"Feature","properties":{"name":"Hexite Deposit (N: 6146, E: 4640)","type":"hexite","timer":"2026-06-15T05:35:16.825Z"},"geometry":{"type":"Point","coordinates":[13920,18437]}},{"type":"Feature","properties":{"name":"Hexite Deposit (N: 5316, E: 4498)","type":"hexite"},"geometry":{"type":"Point","coordinates":[13494,15948]}},{"type":"Feature","properties":{"name":"Hexite Deposit (N: 7050, E: 4609)","type":"hexite"},"geometry":{"type":"Point","coordinates":[13825,21149]}},{"type":"Feature","properties":{"name":"Hexite Deposit (N: 7253, E: 4047)","type":"hexite","timer":"2026-06-14T14:26:32.512Z"},"geometry":{"type":"Point","coordinates":[12143,21758]}},{"type":"Feature","properties":{"name":"Hexite Deposit (N: 7071, E: 3525)","type":"hexite"},"geometry":{"type":"Point","coordinates":[10575,21212]}},{"type":"Feature","properties":{"name":"Hexite Deposit (N: 6225, E: 6298)","type":"hexite","timer":"2026-06-19T09:25:38.450Z"},"geometry":{"type":"Point","coordinates":[18896,18674]}},{"type":"Feature","properties":{"name":"Hexite Deposit (N: 6222, E: 6504)","type":"hexite","timer":"2026-06-12T20:22:13.711Z"},"geometry":{"type":"Point","coordinates":[19510,18665]}},{"type":"Feature","properties":{"name":"Hexite Deposit (N: 6508, E: 6509)","type":"hexite","timer":"2026-06-17T00:56:55.142Z"},"geometry":{"type":"Point","coordinates":[19525,19523]}},{"type":"Feature","properties":{"name":"Hexite Deposit (N: 6547, E: 6367)","type":"hexite","timer":"2026-06-13T09:57:36.050Z"},"geometry":{"type":"Point","coordinates":[19103,19642]}},{"type":"Feature","properties":{"name":"Hexite Deposit (N: 6767, E: 6572)","type":"hexite","timer":"2026-06-18T16:00:40.307Z"},"geometry":{"type":"Point","coordinates":[19717,20302]}},{"type":"Feature","properties":{"name":"Hexite Deposit (N: 6548, E: 6679)","type":"hexite","timer":"2026-06-14T15:40:23.455Z"},"geometry":{"type":"Point","coordinates":[20037,19643]}},{"type":"Feature","properties":{"name":"Hexite Deposit (N: 6322, E: 6826)","type":"hexite","timer":"2026-06-12T09:50:14.118Z"},"geometry":{"type":"Point","coordinates":[20478,18966]}},{"type":"Feature","properties":{"name":"Hexite Deposit (N: 6144, E: 6708)","type":"hexite","timer":"2026-06-17T02:11:32.820Z"},"geometry":{"type":"Point","coordinates":[20124,18433]}},{"type":"Feature","properties":{"name":"Hexite Deposit (N: 5998, E: 6476)","type":"hexite","timer":"2026-06-13T22:29:55.275Z"},"geometry":{"type":"Point","coordinates":[19427,17994]}},{"type":"Feature","properties":{"name":"Hexite Deposit (N: 6071, E: 6257)","type":"hexite","timer":"2026-06-15T23:42:50.319Z"},"geometry":{"type":"Point","coordinates":[18772,18213]}},{"type":"Feature","properties":{"name":"Hexite Deposit (N: 6132, E: 6135)","type":"hexite","timer":"2026-06-17T05:44:06.924Z"},"geometry":{"type":"Point","coordinates":[18405,18395]}},{"type":"Feature","properties":{"name":"Hexite Deposit (N: 6412, E: 6025)","type":"hexite","timer":"2026-06-17T06:22:54.231Z"},"geometry":{"type":"Point","coordinates":[18075,19236]}},{"type":"Feature","properties":{"name":"Hexite Deposit (N: 6572, E: 6065)","type":"hexite","timer":"2026-06-18T00:51:44.569Z"},"geometry":{"type":"Point","coordinates":[18195,19715]}},{"type":"Feature","properties":{"name":"Hexite Deposit (N: 6751, E: 6309)","type":"hexite","timer":"2026-06-18T11:55:04.576Z"},"geometry":{"type":"Point","coordinates":[18928,20254]}},{"type":"Feature","properties":{"name":"Hexite Deposit (N: 5616, E: 9119)","type":"hexite","timer":"2026-06-15T01:38:20.746Z"},"geometry":{"type":"Point","coordinates":[27356,16849]}},{"type":"Feature","properties":{"name":"Hexite Deposit (N: 6060, E: 8598)","type":"hexite","timer":"2026-06-13T04:16:10.128Z"},"geometry":{"type":"Point","coordinates":[25793,18180]}},{"type":"Feature","properties":{"name":"Hexite Deposit (N: 7094, E: 9781)","type":"hexite","timer":"2026-06-12T16:45:40.358Z"},"geometry":{"type":"Point","coordinates":[29343,21283]}},{"type":"Feature","properties":{"name":"Hexite Deposit (N: 6158, E: 8174)","type":"hexite","timer":"2026-06-15T13:50:30.438Z"},"geometry":{"type":"Point","coordinates":[24521,18473]}},{"type":"Feature","properties":{"name":"Hexite Deposit (N: 5593, E: 9647)","type":"hexite","timer":"2026-06-14T18:03:06.582Z"},"geometry":{"type":"Point","coordinates":[28942,16780]}},{"type":"Feature","properties":{"name":"Hexite Deposit (N: 5627, E: 8268)","type":"hexite","timer":"2026-06-14T23:48:44.057Z"},"geometry":{"type":"Point","coordinates":[24806,16881]}},{"type":"Feature","properties":{"name":"Hexite Deposit (N: 6387, E: 9871)","type":"hexite"},"geometry":{"type":"Point","coordinates":[29614,19162]}},{"type":"Feature","properties":{"name":"Hexite Deposit (N: 6746, E: 9150)","type":"hexite","timer":"2026-06-16T14:24:21.160Z"},"geometry":{"type":"Point","coordinates":[27448,20237]}},{"type":"Feature","properties":{"name":"Hexite Deposit (N: 6997, E: 8435)","type":"hexite","timer":"2026-06-14T08:51:28.116Z"},"geometry":{"type":"Point","coordinates":[25307,20992]}},{"type":"Feature","properties":{"name":"Hexite Deposit (N: 7407, E: 8954)","type":"hexite","timer":"2026-06-14T02:30:31.662Z"},"geometry":{"type":"Point","coordinates":[26864,22220]}},{"type":"Feature","properties":{"name":"Maker's Tree (N: 6921, E: 10825)","type":"makers-tree"},"geometry":{"type":"Point","coordinates":[32476,20764]}},{"type":"Feature","properties":{"name":"Maker's Tree (N: 7035, E: 11332)","type":"makers-tree"},"geometry":{"type":"Point","coordinates":[33996,21104]}},{"type":"Feature","properties":{"name":"Maker's Tree (N: 7162, E: 11784)","type":"makers-tree"},"geometry":{"type":"Point","coordinates":[35353,21487]}},{"type":"Feature","properties":{"name":"Maker's Tree (N: 6825, E: 11668)","type":"makers-tree"},"geometry":{"type":"Point","coordinates":[35004,20475]}},{"type":"Feature","properties":{"name":"Maker's Tree (N: 6896, E: 12082)","type":"makers-tree"},"geometry":{"type":"Point","coordinates":[36246,20687]}},{"type":"Feature","properties":{"name":"Maker's Tree (N: 6899, E: 12384)","type":"makers-tree"},"geometry":{"type":"Point","coordinates":[37154,20697]}},{"type":"Feature","properties":{"name":"Maker's Tree (N: 6376, E: 12357)","type":"makers-tree"},"geometry":{"type":"Point","coordinates":[37070,19129]}},{"type":"Feature","properties":{"name":"Maker's Tree (N: 6546, E: 11934)","type":"makers-tree"},"geometry":{"type":"Point","coordinates":[35802,19638]}},{"type":"Feature","properties":{"name":"Maker's Tree (N: 5965, E: 12074)","type":"makers-tree"},"geometry":{"type":"Point","coordinates":[36222,17895]}},{"type":"Feature","properties":{"name":"Maker's Tree (N: 6161, E: 11803)","type":"makers-tree"},"geometry":{"type":"Point","coordinates":[35411,18484]}},{"type":"Feature","properties":{"name":"Maker's Tree (N: 6534, E: 11530)","type":"makers-tree"},"geometry":{"type":"Point","coordinates":[34589,19602]}},{"type":"Feature","properties":{"name":"Maker's Tree (N: 6723, E: 11052)","type":"makers-tree"},"geometry":{"type":"Point","coordinates":[33158,20168]}},{"type":"Feature","properties":{"name":"Maker's Tree (N: 6175, E: 10911)","type":"makers-tree"},"geometry":{"type":"Point","coordinates":[32734,18526]}},{"type":"Feature","properties":{"name":"Maker's Tree (N: 5653, E: 10858)","type":"makers-tree"},"geometry":{"type":"Point","coordinates":[32576,16959]}},{"type":"Feature","properties":{"name":"Maker's Tree (N: 5847, E: 11291)","type":"makers-tree"},"geometry":{"type":"Point","coordinates":[33873,17541]}},{"type":"Feature","properties":{"name":"Maker's Tree (N: 5890, E: 11714)","type":"makers-tree"},"geometry":{"type":"Point","coordinates":[35142,17670]}},{"type":"Feature","properties":{"name":"Maker's Tree (N: 5503, E: 11999)","type":"makers-tree"},"geometry":{"type":"Point","coordinates":[35998,16508]}},{"type":"Feature","properties":{"name":"Hexite Deposit (N: 9174, E: 4801)","type":"hexite","timer":"2026-06-18T15:07:52.921Z"},"geometry":{"type":"Point","coordinates":[14403,27521]}},{"type":"Feature","properties":{"name":"Hexite Deposit (N: 8551, E: 3481)","type":"hexite","timer":"2026-06-12T18:03:23.485Z"},"geometry":{"type":"Point","coordinates":[10446,25654]}},{"type":"Feature","properties":{"name":"Hexite Deposit (N: 9785, E: 4082)","type":"hexite","timer":"2026-06-17T12:18:11.618Z"},"geometry":{"type":"Point","coordinates":[12249,29356]}},{"type":"Feature","properties":{"name":"Hexite Deposit (N: 9600, E: 3605)","type":"hexite","timer":"2026-06-12T12:58:08.559Z"},"geometry":{"type":"Point","coordinates":[10814,28799]}},{"type":"Feature","properties":{"name":"Hexite Deposit (N: 9336, E: 3213)","type":"hexite","timer":"2026-06-14T23:18:28.829Z"},"geometry":{"type":"Point","coordinates":[9640,28009]}},{"type":"Feature","properties":{"name":"Hexite Deposit (N: 10028, E: 4707)","type":"hexite","timer":"2026-06-12T03:42:08.408Z"},"geometry":{"type":"Point","coordinates":[14120,30084]}},{"type":"Feature","properties":{"name":"Hexite Deposit (N: 8065, E: 2971)","type":"hexite"},"geometry":{"type":"Point","coordinates":[8916,24196]}},{"type":"Feature","properties":{"name":"Hexite Deposit (N: 8108, E: 4017)","type":"hexite","timer":"2026-06-15T10:01:20.887Z"},"geometry":{"type":"Point","coordinates":[12051,24324]}},{"type":"Feature","properties":{"name":"Hexite Deposit (N: 8599, E: 4437)","type":"hexite"},"geometry":{"type":"Point","coordinates":[13312,25796]}},{"type":"Feature","properties":{"name":"Hexite Deposit (N: 8437, E: 5020)","type":"hexite","timer":"2026-06-14T13:02:19.306Z"},"geometry":{"type":"Point","coordinates":[15062,25310]}},{"type":"Feature","properties":{"name":"Hexite Deposit (N: 8084, E: 5391)","type":"hexite","timer":"2026-06-17T09:05:14.157Z"},"geometry":{"type":"Point","coordinates":[16172,24253]}},{"type":"Feature","properties":{"name":"Hexite Deposit (N: 9731, E: 6719)","type":"hexite","timer":"2026-06-13T13:06:13.429Z"},"geometry":{"type":"Point","coordinates":[20157,29193]}},{"type":"Feature","properties":{"name":"Hexite Deposit (N: 9607, E: 6203)","type":"hexite","timer":"2026-06-14T08:18:20.809Z"},"geometry":{"type":"Point","coordinates":[18610,28821]}},{"type":"Feature","properties":{"name":"Hexite Deposit (N: 9223, E: 5418)","type":"hexite","timer":"2026-06-11T23:23:55.659Z"},"geometry":{"type":"Point","coordinates":[16256,27670]}},{"type":"Feature","properties":{"name":"Hexite Deposit (N: 9923, E: 5491)","type":"hexite","timer":"2026-06-11T20:03:01.039Z"},"geometry":{"type":"Point","coordinates":[16475,29769]}},{"type":"Feature","properties":{"name":"Hexite Deposit (N: 8397, E: 5606)","type":"hexite","timer":"2026-06-18T11:33:25.915Z"},"geometry":{"type":"Point","coordinates":[16818,25191]}},{"type":"Feature","properties":{"name":"Hexite Deposit (N: 8813, E: 6038)","type":"hexite","timer":"2026-06-17T23:14:51.323Z"},"geometry":{"type":"Point","coordinates":[18115,26440]}},{"type":"Feature","properties":{"name":"Hexite Deposit (N: 9393, E: 7468)","type":"hexite","timer":"2026-06-14T09:53:11.929Z"},"geometry":{"type":"Point","coordinates":[22405,28178]}},{"type":"Feature","properties":{"name":"Hexite Deposit (N: 7913, E: 6801)","type":"hexite","timer":"2026-06-15T23:01:30.502Z"},"geometry":{"type":"Point","coordinates":[20404,23739]}},{"type":"Feature","properties":{"name":"Hexite Deposit (N: 8434, E: 7390)","type":"hexite","timer":"2026-06-14T20:49:02.046Z"},"geometry":{"type":"Point","coordinates":[22170,25303]}},{"type":"Feature","properties":{"name":"Hexite Deposit (N: 8647, E: 10025)","type":"hexite","timer":"2026-06-16T10:05:01.315Z"},"geometry":{"type":"Point","coordinates":[30076,25940]}},{"type":"Feature","properties":{"name":"Hexite Deposit (N: 9286, E: 8082)","type":"hexite","timer":"2026-06-14T10:27:13.430Z"},"geometry":{"type":"Point","coordinates":[24245,27859]}},{"type":"Feature","properties":{"name":"Hexite Deposit (N: 8465, E: 9176)","type":"hexite","timer":"2026-06-12T16:04:08.897Z"},"geometry":{"type":"Point","coordinates":[27528,25394]}},{"type":"Feature","properties":{"name":"Hexite Deposit (N: 7893, E: 9188)","type":"hexite","timer":"2026-06-16T04:20:38.860Z"},"geometry":{"type":"Point","coordinates":[27564,23679]}},{"type":"Feature","properties":{"name":"Hexite Deposit (N: 9653, E: 9840)","type":"hexite"},"geometry":{"type":"Point","coordinates":[29522,28958]}},{"type":"Feature","properties":{"name":"Hexite Deposit (N: 8205, E: 9649)","type":"hexite","timer":"2026-06-15T11:29:08.097Z"},"geometry":{"type":"Point","coordinates":[28948,24615]}},{"type":"Feature","properties":{"name":"Hexite Deposit (N: 8544, E: 8170)","type":"hexite","timer":"2026-06-12T18:04:08.970Z"},"geometry":{"type":"Point","coordinates":[24509,25633]}},{"type":"Feature","properties":{"name":"Hexite Deposit (N: 9546, E: 9252)","type":"hexite"},"geometry":{"type":"Point","coordinates":[27755,28639]}},{"type":"Feature","properties":{"name":"Hexite Deposit (N: 9900, E: 8529)","type":"hexite","timer":"2026-06-14T13:12:13.501Z"},"geometry":{"type":"Point","coordinates":[25586,29700]}},{"type":"Feature","properties":{"name":"Hexite Deposit (N: 9058, E: 8676)","type":"hexite","timer":"2026-06-12T05:44:34.980Z"},"geometry":{"type":"Point","coordinates":[26027,27175]}},{"type":"Feature","properties":{"name":"Maker's Tree (N: 12318, E: 6537)","type":"makers-tree"},"geometry":{"type":"Point","coordinates":[19609,36953]}},{"type":"Feature","properties":{"name":"Maker's Tree (N: 11959, E: 6999)","type":"makers-tree"},"geometry":{"type":"Point","coordinates":[20997,35877]}},{"type":"Feature","properties":{"name":"Maker's Tree (N: 11807, E: 7092)","type":"makers-tree"},"geometry":{"type":"Point","coordinates":[21277,35421]}},{"type":"Feature","properties":{"name":"Maker's Tree (N: 11646, E: 6770)","type":"makers-tree"},"geometry":{"type":"Point","coordinates":[20311,34939]}},{"type":"Feature","properties":{"name":"Maker's Tree (N: 11642, E: 6366)","type":"makers-tree"},"geometry":{"type":"Point","coordinates":[19099,34927]}},{"type":"Feature","properties":{"name":"Maker's Tree (N: 11836, E: 6082)","type":"makers-tree"},"geometry":{"type":"Point","coordinates":[18247,35508]}},{"type":"Feature","properties":{"name":"Maker's Tree (N: 11572, E: 5924)","type":"makers-tree"},"geometry":{"type":"Point","coordinates":[17773,34716]}},{"type":"Feature","properties":{"name":"Maker's Tree (N: 11739, E: 5480)","type":"makers-tree"},"geometry":{"type":"Point","coordinates":[16443,35218]}},{"type":"Feature","properties":{"name":"Maker's Tree (N: 11172, E: 5701)","type":"makers-tree"},"geometry":{"type":"Point","coordinates":[17102,33516]}},{"type":"Feature","properties":{"name":"Maker's Tree (N: 11137, E: 6401)","type":"makers-tree"},"geometry":{"type":"Point","coordinates":[19206,33412]}},{"type":"Feature","properties":{"name":"Maker's Tree (N: 10802, E: 5749)","type":"makers-tree"},"geometry":{"type":"Point","coordinates":[17246,32407]}},{"type":"Feature","properties":{"name":"Maker's Tree (N: 10732, E: 6031)","type":"makers-tree"},"geometry":{"type":"Point","coordinates":[18094,32197]}},{"type":"Feature","properties":{"name":"Maker's Tree (N: 11033, E: 6278)","type":"makers-tree"},"geometry":{"type":"Point","coordinates":[18836,33100]}},{"type":"Feature","properties":{"name":"Maker's Tree (N: 10757, E: 6313)","type":"makers-tree"},"geometry":{"type":"Point","coordinates":[18941,32271]}},{"type":"Feature","properties":{"name":"Maker's Tree (N: 10638, E: 6489)","type":"makers-tree"},"geometry":{"type":"Point","coordinates":[19466,31914]}},{"type":"Feature","properties":{"name":"Maker's Tree (N: 10986, E: 6793)","type":"makers-tree"},"geometry":{"type":"Point","coordinates":[20380,32958]}}]