{"type":"FeatureCollection","features":[{"type":"Feature","properties":{"noPan":1,"color":"#737070","weight":0.4,"opacity":1},"geometry":{"type":"MultiLineString","coordinates":[[[7680,7776],[30720,7776]],[[7680,7872],[30720,7872]],[[7680,7968],[30720,7968]],[[7680,8064],[30720,8064]],[[7680,8160],[30720,8160]],[[7680,8256],[30720,8256]],[[7680,8352],[30720,8352]],[[7680,8448],[30720,8448]],[[7680,8544],[30720,8544]],[[7680,8640],[30720,8640]],[[7680,8736],[30720,8736]],[[7680,8832],[30720,8832]],[[7680,8928],[30720,8928]],[[7680,9024],[30720,9024]],[[7680,9120],[30720,9120]],[[7680,9216],[30720,9216]],[[7680,9312],[30720,9312]],[[7680,9408],[30720,9408]],[[7680,9504],[30720,9504]],[[7680,9600],[30720,9600]],[[7680,9696],[30720,9696]],[[7680,9792],[30720,9792]],[[7680,9888],[30720,9888]],[[7680,9984],[30720,9984]],[[7680,10080],[30720,10080]],[[7680,10176],[30720,10176]],[[7680,10272],[30720,10272]],[[7680,10368],[30720,10368]],[[7680,10464],[30720,10464]],[[7680,10560],[30720,10560]],[[7680,10656],[30720,10656]],[[7680,10752],[30720,10752]],[[7680,10848],[30720,10848]],[[7680,10944],[30720,10944]],[[7680,11040],[30720,11040]],[[7680,11136],[30720,11136]],[[7680,11232],[30720,11232]],[[7680,11328],[30720,11328]],[[7680,11424],[30720,11424]],[[7680,11520],[30720,11520]],[[7680,11616],[30720,11616]],[[7680,11712],[30720,11712]],[[7680,11808],[30720,11808]],[[7680,11904],[30720,11904]],[[7680,12000],[30720,12000]],[[7680,12096],[30720,12096]],[[7680,12192],[30720,12192]],[[7680,12288],[30720,12288]],[[7680,12384],[30720,12384]],[[7680,12480],[30720,12480]],[[7680,12576],[30720,12576]],[[7680,12672],[30720,12672]],[[7680,12768],[30720,12768]],[[7680,12864],[30720,12864]],[[7680,12960],[30720,12960]],[[7680,13056],[30720,13056]],[[7680,13152],[30720,13152]],[[7680,13248],[30720,13248]],[[7680,13344],[30720,13344]],[[7680,13440],[30720,13440]],[[7680,13536],[30720,13536]],[[7680,13632],[30720,13632]],[[7680,13728],[30720,13728]],[[7680,13824],[30720,13824]],[[7680,13920],[30720,13920]],[[7680,14016],[30720,14016]],[[7680,14112],[30720,14112]],[[7680,14208],[30720,14208]],[[7680,14304],[30720,14304]],[[7680,14400],[30720,14400]],[[7680,14496],[30720,14496]],[[7680,14592],[30720,14592]],[[7680,14688],[30720,14688]],[[7680,14784],[30720,14784]],[[7680,14880],[30720,14880]],[[7680,14976],[30720,14976]],[[7680,15072],[30720,15072]],[[7680,15168],[30720,15168]],[[7680,15264],[30720,15264]],[[7680,15360],[30720,15360]],[[7680,15456],[30720,15456]],[[7680,15552],[30720,15552]],[[7680,15648],[30720,15648]],[[7680,15744],[30720,15744]],[[7680,15840],[30720,15840]],[[7680,15936],[30720,15936]],[[7680,16032],[30720,16032]],[[7680,16128],[30720,16128]],[[7680,16224],[30720,16224]],[[7680,16320],[30720,16320]],[[7680,16416],[30720,16416]],[[7680,16512],[30720,16512]],[[7680,16608],[30720,16608]],[[7680,16704],[30720,16704]],[[7680,16800],[30720,16800]],[[7680,16896],[30720,16896]],[[7680,16992],[30720,16992]],[[7680,17088],[30720,17088]],[[7680,17184],[30720,17184]],[[7680,17280],[30720,17280]],[[7680,17376],[30720,17376]],[[7680,17472],[30720,17472]],[[7680,17568],[30720,17568]],[[7680,17664],[30720,17664]],[[7680,17760],[30720,17760]],[[7680,17856],[30720,17856]],[[7680,17952],[30720,17952]],[[7680,18048],[30720,18048]],[[7680,18144],[30720,18144]],[[7680,18240],[30720,18240]],[[7680,18336],[30720,18336]],[[7680,18432],[30720,18432]],[[7680,18528],[30720,18528]],[[7680,18624],[30720,18624]],[[7680,18720],[30720,18720]],[[7680,18816],[30720,18816]],[[7680,18912],[30720,18912]],[[7680,19008],[30720,19008]],[[7680,19104],[30720,19104]],[[7680,19200],[30720,19200]],[[7680,19296],[30720,19296]],[[7680,19392],[30720,19392]],[[7680,19488],[30720,19488]],[[7680,19584],[30720,19584]],[[7680,19680],[30720,19680]],[[7680,19776],[30720,19776]],[[7680,19872],[30720,19872]],[[7680,19968],[30720,19968]],[[7680,20064],[30720,20064]],[[7680,20160],[30720,20160]],[[7680,20256],[30720,20256]],[[7680,20352],[30720,20352]],[[7680,20448],[30720,20448]],[[7680,20544],[30720,20544]],[[7680,20640],[30720,20640]],[[7680,20736],[30720,20736]],[[7680,20832],[30720,20832]],[[7680,20928],[30720,20928]],[[7680,21024],[30720,21024]],[[7680,21120],[30720,21120]],[[7680,21216],[30720,21216]],[[7680,21312],[30720,21312]],[[7680,21408],[30720,21408]],[[7680,21504],[30720,21504]],[[7680,21600],[30720,21600]],[[7680,21696],[30720,21696]],[[7680,21792],[30720,21792]],[[7680,21888],[30720,21888]],[[7680,21984],[30720,21984]],[[7680,22080],[30720,22080]],[[7680,22176],[30720,22176]],[[7680,22272],[30720,22272]],[[7680,22368],[30720,22368]],[[7680,22464],[30720,22464]],[[7680,22560],[30720,22560]],[[7680,22656],[30720,22656]],[[7680,22752],[30720,22752]],[[7680,22848],[30720,22848]],[[7680,22944],[30720,22944]],[[7680,23040],[30720,23040]],[[7680,23136],[30720,23136]],[[7680,23232],[30720,23232]],[[7680,23328],[30720,23328]],[[7680,23424],[30720,23424]],[[7680,23520],[30720,23520]],[[7680,23616],[30720,23616]],[[7680,23712],[30720,23712]],[[7680,23808],[30720,23808]],[[7680,23904],[30720,23904]],[[7680,24000],[30720,24000]],[[7680,24096],[30720,24096]],[[7680,24192],[30720,24192]],[[7680,24288],[30720,24288]],[[7680,24384],[30720,24384]],[[7680,24480],[30720,24480]],[[7680,24576],[30720,24576]],[[7680,24672],[30720,24672]],[[7680,24768],[30720,24768]],[[7680,24864],[30720,24864]],[[7680,24960],[30720,24960]],[[7680,25056],[30720,25056]],[[7680,25152],[30720,25152]],[[7680,25248],[30720,25248]],[[7680,25344],[30720,25344]],[[7680,25440],[30720,25440]],[[7680,25536],[30720,25536]],[[7680,25632],[30720,25632]],[[7680,25728],[30720,25728]],[[7680,25824],[30720,25824]],[[7680,25920],[30720,25920]],[[7680,26016],[30720,26016]],[[7680,26112],[30720,26112]],[[7680,26208],[30720,26208]],[[7680,26304],[30720,26304]],[[7680,26400],[30720,26400]],[[7680,26496],[30720,26496]],[[7680,26592],[30720,26592]],[[7680,26688],[30720,26688]],[[7680,26784],[30720,26784]],[[7680,26880],[30720,26880]],[[7680,26976],[30720,26976]],[[7680,27072],[30720,27072]],[[7680,27168],[30720,27168]],[[7680,27264],[30720,27264]],[[7680,27360],[30720,27360]],[[7680,27456],[30720,27456]],[[7680,27552],[30720,27552]],[[7680,27648],[30720,27648]],[[7680,27744],[30720,27744]],[[7680,27840],[30720,27840]],[[7680,27936],[30720,27936]],[[7680,28032],[30720,28032]],[[7680,28128],[30720,28128]],[[7680,28224],[30720,28224]],[[7680,28320],[30720,28320]],[[7680,28416],[30720,28416]],[[7680,28512],[30720,28512]],[[7680,28608],[30720,28608]],[[7680,28704],[30720,28704]],[[7680,28800],[30720,28800]],[[7680,28896],[30720,28896]],[[7680,28992],[30720,28992]],[[7680,29088],[30720,29088]],[[7680,29184],[30720,29184]],[[7680,29280],[30720,29280]],[[7680,29376],[30720,29376]],[[7680,29472],[30720,29472]],[[7680,29568],[30720,29568]],[[7680,29664],[30720,29664]],[[7680,29760],[30720,29760]],[[7680,29856],[30720,29856]],[[7680,29952],[30720,29952]],[[7680,30048],[30720,30048]],[[7680,30144],[30720,30144]],[[7680,30240],[30720,30240]],[[7680,30336],[30720,30336]],[[7680,30432],[30720,30432]],[[7680,30528],[30720,30528]],[[7680,30624],[30720,30624]],[[7776,7680],[7776,30720]],[[7872,7680],[7872,30720]],[[7968,7680],[7968,30720]],[[8064,7680],[8064,30720]],[[8160,7680],[8160,30720]],[[8256,7680],[8256,30720]],[[8352,7680],[8352,30720]],[[8448,7680],[8448,30720]],[[8544,7680],[8544,30720]],[[8640,7680],[8640,30720]],[[8736,7680],[8736,30720]],[[8832,7680],[8832,30720]],[[8928,7680],[8928,30720]],[[9024,7680],[9024,30720]],[[9120,7680],[9120,30720]],[[9216,7680],[9216,30720]],[[9312,7680],[9312,30720]],[[9408,7680],[9408,30720]],[[9504,7680],[9504,30720]],[[9600,7680],[9600,30720]],[[9696,7680],[9696,30720]],[[9792,7680],[9792,30720]],[[9888,7680],[9888,30720]],[[9984,7680],[9984,30720]],[[10080,7680],[10080,30720]],[[10176,7680],[10176,30720]],[[10272,7680],[10272,30720]],[[10368,7680],[10368,30720]],[[10464,7680],[10464,30720]],[[10560,7680],[10560,30720]],[[10656,7680],[10656,30720]],[[10752,7680],[10752,30720]],[[10848,7680],[10848,30720]],[[10944,7680],[10944,30720]],[[11040,7680],[11040,30720]],[[11136,7680],[11136,30720]],[[11232,7680],[11232,30720]],[[11328,7680],[11328,30720]],[[11424,7680],[11424,30720]],[[11520,7680],[11520,30720]],[[11616,7680],[11616,30720]],[[11712,7680],[11712,30720]],[[11808,7680],[11808,30720]],[[11904,7680],[11904,30720]],[[12000,7680],[12000,30720]],[[12096,7680],[12096,30720]],[[12192,7680],[12192,30720]],[[12288,7680],[12288,30720]],[[12384,7680],[12384,30720]],[[12480,7680],[12480,30720]],[[12576,7680],[12576,30720]],[[12672,7680],[12672,30720]],[[12768,7680],[12768,30720]],[[12864,7680],[12864,30720]],[[12960,7680],[12960,30720]],[[13056,7680],[13056,30720]],[[13152,7680],[13152,30720]],[[13248,7680],[13248,30720]],[[13344,7680],[13344,30720]],[[13440,7680],[13440,30720]],[[13536,7680],[13536,30720]],[[13632,7680],[13632,30720]],[[13728,7680],[13728,30720]],[[13824,7680],[13824,30720]],[[13920,7680],[13920,30720]],[[14016,7680],[14016,30720]],[[14112,7680],[14112,30720]],[[14208,7680],[14208,30720]],[[14304,7680],[14304,30720]],[[14400,7680],[14400,30720]],[[14496,7680],[14496,30720]],[[14592,7680],[14592,30720]],[[14688,7680],[14688,30720]],[[14784,7680],[14784,30720]],[[14880,7680],[14880,30720]],[[14976,7680],[14976,30720]],[[15072,7680],[15072,30720]],[[15168,7680],[15168,30720]],[[15264,7680],[15264,30720]],[[15360,7680],[15360,30720]],[[15456,7680],[15456,30720]],[[15552,7680],[15552,30720]],[[15648,7680],[15648,30720]],[[15744,7680],[15744,30720]],[[15840,7680],[15840,30720]],[[15936,7680],[15936,30720]],[[16032,7680],[16032,30720]],[[16128,7680],[16128,30720]],[[16224,7680],[16224,30720]],[[16320,7680],[16320,30720]],[[16416,7680],[16416,30720]],[[16512,7680],[16512,30720]],[[16608,7680],[16608,30720]],[[16704,7680],[16704,30720]],[[16800,7680],[16800,30720]],[[16896,7680],[16896,30720]],[[16992,7680],[16992,30720]],[[17088,7680],[17088,30720]],[[17184,7680],[17184,30720]],[[17280,7680],[17280,30720]],[[17376,7680],[17376,30720]],[[17472,7680],[17472,30720]],[[17568,7680],[17568,30720]],[[17664,7680],[17664,30720]],[[17760,7680],[17760,30720]],[[17856,7680],[17856,30720]],[[17952,7680],[17952,30720]],[[18048,7680],[18048,30720]],[[18144,7680],[18144,30720]],[[18240,7680],[18240,30720]],[[18336,7680],[18336,30720]],[[18432,7680],[18432,30720]],[[18528,7680],[18528,30720]],[[18624,7680],[18624,30720]],[[18720,7680],[18720,30720]],[[18816,7680],[18816,30720]],[[18912,7680],[18912,30720]],[[19008,7680],[19008,30720]],[[19104,7680],[19104,30720]],[[19200,7680],[19200,30720]],[[19296,7680],[19296,30720]],[[19392,7680],[19392,30720]],[[19488,7680],[19488,30720]],[[19584,7680],[19584,30720]],[[19680,7680],[19680,30720]],[[19776,7680],[19776,30720]],[[19872,7680],[19872,30720]],[[19968,7680],[19968,30720]],[[20064,7680],[20064,30720]],[[20160,7680],[20160,30720]],[[20256,7680],[20256,30720]],[[20352,7680],[20352,30720]],[[20448,7680],[20448,30720]],[[20544,7680],[20544,30720]],[[20640,7680],[20640,30720]],[[20736,7680],[20736,30720]],[[20832,7680],[20832,30720]],[[20928,7680],[20928,30720]],[[21024,7680],[21024,30720]],[[21120,7680],[21120,30720]],[[21216,7680],[21216,30720]],[[21312,7680],[21312,30720]],[[21408,7680],[21408,30720]],[[21504,7680],[21504,30720]],[[21600,7680],[21600,30720]],[[21696,7680],[21696,30720]],[[21792,7680],[21792,30720]],[[21888,7680],[21888,30720]],[[21984,7680],[21984,30720]],[[22080,7680],[22080,30720]],[[22176,7680],[22176,30720]],[[22272,7680],[22272,30720]],[[22368,7680],[22368,30720]],[[22464,7680],[22464,30720]],[[22560,7680],[22560,30720]],[[22656,7680],[22656,30720]],[[22752,7680],[22752,30720]],[[22848,7680],[22848,30720]],[[22944,7680],[22944,30720]],[[23040,7680],[23040,30720]],[[23136,7680],[23136,30720]],[[23232,7680],[23232,30720]],[[23328,7680],[23328,30720]],[[23424,7680],[23424,30720]],[[23520,7680],[23520,30720]],[[23616,7680],[23616,30720]],[[23712,7680],[23712,30720]],[[23808,7680],[23808,30720]],[[23904,7680],[23904,30720]],[[24000,7680],[24000,30720]],[[24096,7680],[24096,30720]],[[24192,7680],[24192,30720]],[[24288,7680],[24288,30720]],[[24384,7680],[24384,30720]],[[24480,7680],[24480,30720]],[[24576,7680],[24576,30720]],[[24672,7680],[24672,30720]],[[24768,7680],[24768,30720]],[[24864,7680],[24864,30720]],[[24960,7680],[24960,30720]],[[25056,7680],[25056,30720]],[[25152,7680],[25152,30720]],[[25248,7680],[25248,30720]],[[25344,7680],[25344,30720]],[[25440,7680],[25440,30720]],[[25536,7680],[25536,30720]],[[25632,7680],[25632,30720]],[[25728,7680],[25728,30720]],[[25824,7680],[25824,30720]],[[25920,7680],[25920,30720]],[[26016,7680],[26016,30720]],[[26112,7680],[26112,30720]],[[26208,7680],[26208,30720]],[[26304,7680],[26304,30720]],[[26400,7680],[26400,30720]],[[26496,7680],[26496,30720]],[[26592,7680],[26592,30720]],[[26688,7680],[26688,30720]],[[26784,7680],[26784,30720]],[[26880,7680],[26880,30720]],[[26976,7680],[26976,30720]],[[27072,7680],[27072,30720]],[[27168,7680],[27168,30720]],[[27264,7680],[27264,30720]],[[27360,7680],[27360,30720]],[[27456,7680],[27456,30720]],[[27552,7680],[27552,30720]],[[27648,7680],[27648,30720]],[[27744,7680],[27744,30720]],[[27840,7680],[27840,30720]],[[27936,7680],[27936,30720]],[[28032,7680],[28032,30720]],[[28128,7680],[28128,30720]],[[28224,7680],[28224,30720]],[[28320,7680],[28320,30720]],[[28416,7680],[28416,30720]],[[28512,7680],[28512,30720]],[[28608,7680],[28608,30720]],[[28704,7680],[28704,30720]],[[28800,7680],[28800,30720]],[[28896,7680],[28896,30720]],[[28992,7680],[28992,30720]],[[29088,7680],[29088,30720]],[[29184,7680],[29184,30720]],[[29280,7680],[29280,30720]],[[29376,7680],[29376,30720]],[[29472,7680],[29472,30720]],[[29568,7680],[29568,30720]],[[29664,7680],[29664,30720]],[[29760,7680],[29760,30720]],[[29856,7680],[29856,30720]],[[29952,7680],[29952,30720]],[[30048,7680],[30048,30720]],[[30144,7680],[30144,30720]],[[30240,7680],[30240,30720]],[[30336,7680],[30336,30720]],[[30432,7680],[30432,30720]],[[30528,7680],[30528,30720]],[[30624,7680],[30624,30720]]]}},{"type":"Feature","properties":{"noPan":1,"color":"#000000","weight":2,"opacity":1},"geometry":{"type":"MultiLineString","coordinates":[[[7680,7680],[30720,7680]],[[7680,15360],[30720,15360]],[[7680,23040],[30720,23040]],[[7680,30720],[30720,30720]],[[7680,7680],[7680,30720]],[[15360,7680],[15360,30720]],[[23040,7680],[23040,30720]],[[30720,7680],[30720,30720]]]}},{"type":"Feature","properties":{"type":"tooltip","noPan":1,"popupText":"Virexal"},"geometry":{"type":"Point","coordinates":[11520,11520]}},{"type":"Feature","properties":{"type":"tooltip","noPan":1,"popupText":"Solmere"},"geometry":{"type":"Point","coordinates":[19200,11520]}},{"type":"Feature","properties":{"type":"tooltip","noPan":1,"popupText":"Marowik"},"geometry":{"type":"Point","coordinates":[26880,11520]}},{"type":"Feature","properties":{"type":"tooltip","noPan":1,"popupText":"Elyndor"},"geometry":{"type":"Point","coordinates":[11520,19200]}},{"type":"Feature","properties":{"type":"tooltip","noPan":1,"popupText":"Hexalis"},"geometry":{"type":"Point","coordinates":[19200,19200]}},{"type":"Feature","properties":{"type":"tooltip","noPan":1,"popupText":"Lumethis"},"geometry":{"type":"Point","coordinates":[26880,19200]}},{"type":"Feature","properties":{"type":"tooltip","noPan":1,"popupText":"Draxen"},"geometry":{"type":"Point","coordinates":[11520,26880]}},{"type":"Feature","properties":{"type":"tooltip","noPan":1,"popupText":"Oryxen"},"geometry":{"type":"Point","coordinates":[19200,26880]}},{"type":"Feature","properties":{"type":"tooltip","noPan":1,"popupText":"Zephra"},"geometry":{"type":"Point","coordinates":[26880,26880]}}]}