[{"type":"Feature","properties":{"name":"Traveler Camp (N: 1976, E: 6393)","popupText":"Traveler Camp (N: 1976, E: 6393)","iconName":"traveler-camp","type":"traveler-camp"},"geometry":{"type":"Point","coordinates":[19180,5929]}},{"type":"Feature","properties":{"name":"Emberford","type":"ruined-city"},"geometry":{"type":"Point","coordinates":[10719,10914]}},{"type":"Feature","properties":{"name":"Cinderhold","type":"ruined-city"},"geometry":{"type":"Point","coordinates":[10222,12519]}},{"type":"Feature","properties":{"name":"Ashgrove","type":"ruined-city"},"geometry":{"type":"Point","coordinates":[11496,11952]}},{"type":"Feature","properties":{"name":"Brindlemoor","type":"ruined-city"},"geometry":{"type":"Point","coordinates":[11535,9954]}},{"type":"Feature","properties":{"name":"Redwatch","type":"ruined-city"},"geometry":{"type":"Point","coordinates":[18586,11223]}},{"type":"Feature","properties":{"name":"Frostward","type":"ruined-city"},"geometry":{"type":"Point","coordinates":[19579,11091]}},{"type":"Feature","properties":{"name":"Bristlehold","type":"ruined-city"},"geometry":{"type":"Point","coordinates":[20016,12060]}},{"type":"Feature","properties":{"name":"Gatemarch","type":"ruined-city"},"geometry":{"type":"Point","coordinates":[19131,12552]}},{"type":"Feature","properties":{"name":"Ironfall","type":"ruined-city"},"geometry":{"type":"Point","coordinates":[27775,11835]}},{"type":"Feature","properties":{"name":"Stormhex","type":"ruined-city"},"geometry":{"type":"Point","coordinates":[26908,12351]}},{"type":"Feature","properties":{"name":"Rimefield","type":"ruined-city"},"geometry":{"type":"Point","coordinates":[26875,11361]}},{"type":"Feature","properties":{"name":"Blackfen","type":"ruined-city"},"geometry":{"type":"Point","coordinates":[27654,10764]}},{"type":"Feature","properties":{"name":"Traveler Camp (N: 6470, E: 2240)","popupText":"Traveler Camp (N: 6470, E: 2240)","iconName":"traveler-camp","type":"traveler-camp"},"geometry":{"type":"Point","coordinates":[6719,19411]}},{"type":"Feature","properties":{"name":"Greymire","type":"ruined-city"},"geometry":{"type":"Point","coordinates":[9933,19728]}},{"type":"Feature","properties":{"name":"Marrowick","type":"ruined-city"},"geometry":{"type":"Point","coordinates":[11853,20166]}},{"type":"Feature","properties":{"name":"Goldfen","type":"ruined-city"},"geometry":{"type":"Point","coordinates":[10596,18360]}},{"type":"Feature","properties":{"name":"Coldhollow","type":"ruined-city"},"geometry":{"type":"Point","coordinates":[10890,20076]}},{"type":"Feature","properties":{"name":"Traveler Camp (N: 6247, E: 6684)","popupText":"Traveler Camp (N: 6247, E: 6684)","iconName":"traveler-camp","type":"traveler-camp"},"geometry":{"type":"Point","coordinates":[20053,18740]}},{"type":"Feature","properties":{"name":"Thornmere","type":"ruined-city"},"geometry":{"type":"Point","coordinates":[26173,20439]}},{"type":"Feature","properties":{"name":"Briarwick","type":"ruined-city"},"geometry":{"type":"Point","coordinates":[25303,19953]}},{"type":"Feature","properties":{"name":"Ravenmoor","type":"ruined-city"},"geometry":{"type":"Point","coordinates":[26698,19401]}},{"type":"Feature","properties":{"name":"Gloomreach","type":"ruined-city"},"geometry":{"type":"Point","coordinates":[24928,18963]}},{"type":"Feature","properties":{"name":"Traveler Camp (N: 6314, E: 10837)","popupText":"Traveler Camp (N: 6314, E: 10837)","iconName":"traveler-camp","type":"traveler-camp"},"geometry":{"type":"Point","coordinates":[32510,18941]}},{"type":"Feature","properties":{"name":"Dawnspire","type":"ruined-city"},"geometry":{"type":"Point","coordinates":[12430,25683]}},{"type":"Feature","properties":{"name":"Suncrest","type":"ruined-city"},"geometry":{"type":"Point","coordinates":[9223,26223]}},{"type":"Feature","properties":{"name":"Skyhaven","type":"ruined-city"},"geometry":{"type":"Point","coordinates":[11542,26187]}},{"type":"Feature","properties":{"name":"Brightwall","type":"ruined-city"},"geometry":{"type":"Point","coordinates":[12513,26706]}},{"type":"Feature","properties":{"name":"Duskridge","type":"ruined-city"},"geometry":{"type":"Point","coordinates":[18877,25959]}},{"type":"Feature","properties":{"name":"Greyfield","type":"ruined-city"},"geometry":{"type":"Point","coordinates":[20325,25380]}},{"type":"Feature","properties":{"name":"Stonewake","type":"ruined-city"},"geometry":{"type":"Point","coordinates":[19003,26901]}},{"type":"Feature","properties":{"name":"Windmere","type":"ruined-city"},"geometry":{"type":"Point","coordinates":[20502,26292]}},{"type":"Feature","properties":{"name":"Fernwick","type":"ruined-city"},"geometry":{"type":"Point","coordinates":[26254,27855]}},{"type":"Feature","properties":{"name":"Amberfall","type":"ruined-city"},"geometry":{"type":"Point","coordinates":[25477,27393]}},{"type":"Feature","properties":{"name":"Shardvale","type":"ruined-city"},"geometry":{"type":"Point","coordinates":[26872,26499]}},{"type":"Feature","properties":{"name":"Stormhollow","type":"ruined-city"},"geometry":{"type":"Point","coordinates":[26130,25854]}},{"type":"Feature","properties":{"name":"Traveler Camp (N: 11034, E: 6396)","popupText":"Traveler Camp (N: 11034, E: 6396)","iconName":"traveler-camp","type":"traveler-camp"},"geometry":{"type":"Point","coordinates":[19187,33103]}}]