[{"type":"Feature","properties":{"name":"Emberford"},"geometry":{"type":"Point","coordinates":[10719,10914]}},{"type":"Feature","properties":{"name":"Cinderhold"},"geometry":{"type":"Point","coordinates":[10222,12519]}},{"type":"Feature","properties":{"name":"Ashgrove"},"geometry":{"type":"Point","coordinates":[11496,11952]}},{"type":"Feature","properties":{"name":"Brindlemoor"},"geometry":{"type":"Point","coordinates":[11535,9954]}},{"type":"Feature","properties":{"name":"Redwatch"},"geometry":{"type":"Point","coordinates":[18586,11223]}},{"type":"Feature","properties":{"name":"Frostward"},"geometry":{"type":"Point","coordinates":[19579,11091]}},{"type":"Feature","properties":{"name":"Bristlehold"},"geometry":{"type":"Point","coordinates":[20016,12060]}},{"type":"Feature","properties":{"name":"Gatemarch"},"geometry":{"type":"Point","coordinates":[19131,12552]}},{"type":"Feature","properties":{"name":"Ironfall"},"geometry":{"type":"Point","coordinates":[27775,11835]}},{"type":"Feature","properties":{"name":"Stormhex"},"geometry":{"type":"Point","coordinates":[26908,12351]}},{"type":"Feature","properties":{"name":"Rimefield"},"geometry":{"type":"Point","coordinates":[26875,11361]}},{"type":"Feature","properties":{"name":"Blackfen"},"geometry":{"type":"Point","coordinates":[27654,10764]}},{"type":"Feature","properties":{"name":"Greymire"},"geometry":{"type":"Point","coordinates":[9933,19728]}},{"type":"Feature","properties":{"name":"Marrowick"},"geometry":{"type":"Point","coordinates":[11853,20166]}},{"type":"Feature","properties":{"name":"Goldfen"},"geometry":{"type":"Point","coordinates":[10596,18360]}},{"type":"Feature","properties":{"name":"Coldhollow"},"geometry":{"type":"Point","coordinates":[10890,20076]}},{"type":"Feature","properties":{"name":"Thornmere"},"geometry":{"type":"Point","coordinates":[26173,20439]}},{"type":"Feature","properties":{"name":"Briarwick"},"geometry":{"type":"Point","coordinates":[25303,19953]}},{"type":"Feature","properties":{"name":"Ravenmoor"},"geometry":{"type":"Point","coordinates":[26698,19401]}},{"type":"Feature","properties":{"name":"Gloomreach"},"geometry":{"type":"Point","coordinates":[24928,18963]}},{"type":"Feature","properties":{"name":"Dawnspire"},"geometry":{"type":"Point","coordinates":[12430,25683]}},{"type":"Feature","properties":{"name":"Suncrest"},"geometry":{"type":"Point","coordinates":[9223,26223]}},{"type":"Feature","properties":{"name":"Skyhaven"},"geometry":{"type":"Point","coordinates":[11542,26187]}},{"type":"Feature","properties":{"name":"Brightwall"},"geometry":{"type":"Point","coordinates":[12513,26706]}},{"type":"Feature","properties":{"name":"Duskridge"},"geometry":{"type":"Point","coordinates":[18877,25959]}},{"type":"Feature","properties":{"name":"Greyfield"},"geometry":{"type":"Point","coordinates":[20325,25380]}},{"type":"Feature","properties":{"name":"Stonewake"},"geometry":{"type":"Point","coordinates":[19003,26901]}},{"type":"Feature","properties":{"name":"Windmere"},"geometry":{"type":"Point","coordinates":[20502,26292]}},{"type":"Feature","properties":{"name":"Fernwick"},"geometry":{"type":"Point","coordinates":[26254,27855]}},{"type":"Feature","properties":{"name":"Amberfall"},"geometry":{"type":"Point","coordinates":[25477,27393]}},{"type":"Feature","properties":{"name":"Shardvale"},"geometry":{"type":"Point","coordinates":[26872,26499]}},{"type":"Feature","properties":{"name":"Stormhollow"},"geometry":{"type":"Point","coordinates":[26130,25854]}}]