[{"type":"Feature","properties":{"name":"First Temple Entrance (N: 3745, E: 3857)"},"geometry":{"type":"Point","coordinates":[11572,11234]}},{"type":"Feature","properties":{"name":"Second Temple Entrance (N: 4337, E: 2833)"},"geometry":{"type":"Point","coordinates":[8501,13012]}},{"type":"Feature","properties":{"name":"Third Temple Entrance (N: 3151, E: 3082)"},"geometry":{"type":"Point","coordinates":[9248,9454]}},{"type":"Feature","properties":{"name":"Fourth Temple Entrance (N: 3535, E: 4781)"},"geometry":{"type":"Point","coordinates":[14344,10605]}},{"type":"Feature","properties":{"name":"First Temple Entrance (N: 3912, E: 6470)"},"geometry":{"type":"Point","coordinates":[19411,11737]}},{"type":"Feature","properties":{"name":"Third Temple Entrance (N: 3705, E: 7372)"},"geometry":{"type":"Point","coordinates":[22118,11114]}},{"type":"Feature","properties":{"name":"Fourth Temple Entrance (N: 3211, E: 5648)"},"geometry":{"type":"Point","coordinates":[16945,9632]}},{"type":"Feature","properties":{"name":"Second Temple Entrance (N: 4872, E: 6643)"},"geometry":{"type":"Point","coordinates":[19930,14616]}},{"type":"Feature","properties":{"name":"First Temple Entrance (N: 3925, E: 9094)"},"geometry":{"type":"Point","coordinates":[27283,11775]}},{"type":"Feature","properties":{"name":"Second Temple Entrance (N: 3191, E: 9105)"},"geometry":{"type":"Point","coordinates":[27316,9573]}},{"type":"Feature","properties":{"name":"Third Temple Entrance (N: 3088, E: 8141)"},"geometry":{"type":"Point","coordinates":[24424,9264]}},{"type":"Feature","properties":{"name":"Fourth Temple Entrance (N: 4589, E: 9768)"},"geometry":{"type":"Point","coordinates":[29306,13767]}},{"type":"Feature","properties":{"name":"First Temple Entrance (N: 6439, E: 3610)"},"geometry":{"type":"Point","coordinates":[10833,19318]}},{"type":"Feature","properties":{"name":"Second Temple Entrance (N: 7181, E: 4745)"},"geometry":{"type":"Point","coordinates":[14238,21544]}},{"type":"Feature","properties":{"name":"Third Temple Entrance (N: 5804, E: 4295)"},"geometry":{"type":"Point","coordinates":[12884,17412]}},{"type":"Feature","properties":{"name":"Fourth Temple Entrance (N: 5854, E: 4496)"},"geometry":{"type":"Point","coordinates":[13487,17562]}},{"type":"Feature","properties":{"name":"Fifth Temple Entrance (N: 6333, E: 6398)"},"geometry":{"type":"Point","coordinates":[19195,19000]}},{"type":"Feature","properties":{"name":"First Temple Entrance (N: 6596, E: 8649)"},"geometry":{"type":"Point","coordinates":[25947,19789]}},{"type":"Feature","properties":{"name":"Second Temple Entrance (N: 7386, E: 8119)"},"geometry":{"type":"Point","coordinates":[24357,22158]}},{"type":"Feature","properties":{"name":"Third Temple Entrance (N: 5712, E: 8143)"},"geometry":{"type":"Point","coordinates":[24430,17137]}},{"type":"Feature","properties":{"name":"Fourth Temple Entrance (N: 7060, E: 9746)"},"geometry":{"type":"Point","coordinates":[29237,21179]}},{"type":"Feature","properties":{"name":"First Temple Entrance (N: 8727, E: 4048)"},"geometry":{"type":"Point","coordinates":[12144,26181]}},{"type":"Feature","properties":{"name":"First Temple Entrance (N: 8786, E: 2896)"},"geometry":{"type":"Point","coordinates":[8689,26358]}},{"type":"Feature","properties":{"name":"Second Temple Entrance (N: 8017, E: 3207)"},"geometry":{"type":"Point","coordinates":[9622,24052]}},{"type":"Feature","properties":{"name":"Third Temple Entrance (N: 8084, E: 4078)"},"geometry":{"type":"Point","coordinates":[12234,24252]}},{"type":"Feature","properties":{"name":"Fourth Temple Entrance (N: 9734, E: 3383)"},"geometry":{"type":"Point","coordinates":[10149,29201]}},{"type":"Feature","properties":{"name":"First Temple Entrance (N: 8756, E: 6546)"},"geometry":{"type":"Point","coordinates":[19637,26269]}},{"type":"Feature","properties":{"name":"Second Temple Entrance (N: 9216, E: 5397)"},"geometry":{"type":"Point","coordinates":[16191,27647]}},{"type":"Feature","properties":{"name":"Third Temple Entrance (N: 8293, E: 5612)"},"geometry":{"type":"Point","coordinates":[16839,24880]}},{"type":"Feature","properties":{"name":"Fourth Temple Entrance (N: 9640, E: 6120)"},"geometry":{"type":"Point","coordinates":[18360,28921]}},{"type":"Feature","properties":{"name":"First Temple Entrance (N: 9045, E: 8721)"},"geometry":{"type":"Point","coordinates":[26164,27135]}},{"type":"Feature","properties":{"name":"Second Temple Entrance (N: 9981, E: 8621)"},"geometry":{"type":"Point","coordinates":[25864,29942]}},{"type":"Feature","properties":{"name":"Third Temple Entrance (N: 8631, E: 8128)"},"geometry":{"type":"Point","coordinates":[24386,25892]}},{"type":"Feature","properties":{"name":"Fourth Temple Entrance (N: 8984, E: 9932)"},"geometry":{"type":"Point","coordinates":[29796,26952]}}]