[{"type":"Feature","properties":{"name":"Hexite Deposit (N: 3972, E: 4774)","type":"hexite","timer":"2026-06-07T18:37:51.768Z"},"geometry":{"type":"Point","coordinates":[14323,11917]}},{"type":"Feature","properties":{"name":"Hexite Deposit (N: 3014, E: 4142)","type":"hexite"},"geometry":{"type":"Point","coordinates":[12426,9043]}},{"type":"Feature","properties":{"name":"Hexite Deposit (N: 3362, E: 3687)","type":"hexite","timer":"2026-06-08T18:27:41.135Z"},"geometry":{"type":"Point","coordinates":[11061,10087]}},{"type":"Feature","properties":{"name":"Hexite Deposit (N: 2794, E: 2882)","type":"hexite","timer":"2026-06-07T19:47:34.775Z"},"geometry":{"type":"Point","coordinates":[8647,8382]}},{"type":"Feature","properties":{"name":"Hexite Deposit (N: 4555, E: 2820)","type":"hexite","timer":"2026-06-05T05:30:19.495Z"},"geometry":{"type":"Point","coordinates":[8462,13666]}},{"type":"Feature","properties":{"name":"Hexite Deposit (N: 4902, E: 4657)","type":"hexite","timer":"2026-06-07T09:57:46.448Z"},"geometry":{"type":"Point","coordinates":[13970,14707]}},{"type":"Feature","properties":{"name":"Hexite Deposit (N: 3399, E: 4748)","type":"hexite","timer":"2026-06-09T00:40:30.728Z"},"geometry":{"type":"Point","coordinates":[14247,10198]}},{"type":"Feature","properties":{"name":"Hexite Deposit (N: 3879, E: 2893)","type":"hexite","timer":"2026-06-08T16:30:21.074Z"},"geometry":{"type":"Point","coordinates":[8682,11638]}},{"type":"Feature","properties":{"name":"Hexite Deposit (N: 4181, E: 4279)","type":"hexite","timer":"2026-06-11T07:35:31.696Z"},"geometry":{"type":"Point","coordinates":[12838,12542]}},{"type":"Feature","properties":{"name":"Hexite Deposit (N: 4598, E: 3471)","type":"hexite","timer":"2026-06-08T01:59:48.449Z"},"geometry":{"type":"Point","coordinates":[10413,13795]}},{"type":"Feature","properties":{"name":"Hexite Deposit (N: 4361, E: 7208)","type":"hexite","timer":"2026-06-08T21:55:44.082Z"},"geometry":{"type":"Point","coordinates":[21626,13084]}},{"type":"Feature","properties":{"name":"Hexite Deposit (N: 3140, E: 6551)","type":"hexite","timer":"2026-06-10T19:47:27.835Z"},"geometry":{"type":"Point","coordinates":[19654,9421]}},{"type":"Feature","properties":{"name":"Hexite Deposit (N: 3548, E: 5289)","type":"hexite","timer":"2026-06-05T12:37:39.487Z"},"geometry":{"type":"Point","coordinates":[15866,10643]}},{"type":"Feature","properties":{"name":"Hexite Deposit (N: 4675, E: 6067)","type":"hexite","timer":"2026-06-10T06:41:07.588Z"},"geometry":{"type":"Point","coordinates":[18203,14026]}},{"type":"Feature","properties":{"name":"Hexite Deposit (N: 3205, E: 7340)","type":"hexite","timer":"2026-06-07T23:37:11.950Z"},"geometry":{"type":"Point","coordinates":[22022,9616]}},{"type":"Feature","properties":{"name":"Hexite Deposit (N: 3794, E: 7532)","type":"hexite","timer":"2026-06-09T20:48:51.341Z"},"geometry":{"type":"Point","coordinates":[22595,11383]}},{"type":"Feature","properties":{"name":"Hexite Deposit (N: 4926, E: 6725)","type":"hexite"},"geometry":{"type":"Point","coordinates":[20175,14778]}},{"type":"Feature","properties":{"name":"Hexite Deposit (N: 4216, E: 5489)","type":"hexite","timer":"2026-06-09T00:28:16.597Z"},"geometry":{"type":"Point","coordinates":[16465,12647]}},{"type":"Feature","properties":{"name":"Hexite Deposit (N: 3176, E: 5747)","type":"hexite","timer":"2026-06-06T05:44:44.437Z"},"geometry":{"type":"Point","coordinates":[17241,9529]}},{"type":"Feature","properties":{"name":"Hexite Deposit (N: 3885, E: 6409)","type":"hexite","timer":"2026-06-08T13:32:51.125Z"},"geometry":{"type":"Point","coordinates":[19228,11655]}},{"type":"Feature","properties":{"name":"Hexite Deposit (N: 3237, E: 8533)","type":"hexite"},"geometry":{"type":"Point","coordinates":[25601,9710]}},{"type":"Feature","properties":{"name":"Hexite Deposit (N: 3956, E: 9090)","type":"hexite","timer":"2026-06-11T09:11:47.343Z"},"geometry":{"type":"Point","coordinates":[27270,11869]}},{"type":"Feature","properties":{"name":"Hexite Deposit (N: 3189, E: 9226)","type":"hexite","timer":"2026-06-08T22:12:33.008Z"},"geometry":{"type":"Point","coordinates":[27678,9567]}},{"type":"Feature","properties":{"name":"Hexite Deposit (N: 4910, E: 8115)","type":"hexite","timer":"2026-06-08T21:07:11.181Z"},"geometry":{"type":"Point","coordinates":[24344,14731]}},{"type":"Feature","properties":{"name":"Hexite Deposit (N: 3637, E: 7925)","type":"hexite","timer":"2026-06-10T22:33:24.302Z"},"geometry":{"type":"Point","coordinates":[23776,10912]}},{"type":"Feature","properties":{"name":"Hexite Deposit (N: 3224, E: 9950)","type":"hexite","timer":"2026-06-07T01:31:36.687Z"},"geometry":{"type":"Point","coordinates":[29850,9671]}},{"type":"Feature","properties":{"name":"Hexite Deposit (N: 4125, E: 9816)","type":"hexite","timer":"2026-06-06T02:38:29.101Z"},"geometry":{"type":"Point","coordinates":[29448,12374]}},{"type":"Feature","properties":{"name":"Hexite Deposit (N: 2701, E: 8112)","type":"hexite","timer":"2026-06-05T08:19:19.482Z"},"geometry":{"type":"Point","coordinates":[24338,8104]}},{"type":"Feature","properties":{"name":"Hexite Deposit (N: 4339, E: 8316)","type":"hexite","timer":"2026-06-10T09:18:32.092Z"},"geometry":{"type":"Point","coordinates":[24949,13016]}},{"type":"Feature","properties":{"name":"Hexite Deposit (N: 4592, E: 9483)","type":"hexite","timer":"2026-06-08T21:04:41.705Z"},"geometry":{"type":"Point","coordinates":[28448,13776]}},{"type":"Feature","properties":{"name":"Hexite Deposit (N: 5965, E: 2959)","type":"hexite","timer":"2026-06-06T15:36:29.878Z"},"geometry":{"type":"Point","coordinates":[8879,17896]}},{"type":"Feature","properties":{"name":"Hexite Deposit (N: 7220, E: 3090)","type":"hexite","timer":"2026-06-09T16:18:43.523Z"},"geometry":{"type":"Point","coordinates":[9270,21661]}},{"type":"Feature","properties":{"name":"Hexite Deposit (N: 6706, E: 2993)","type":"hexite"},"geometry":{"type":"Point","coordinates":[8977,20117]}},{"type":"Feature","properties":{"name":"Hexite Deposit (N: 5622, E: 3856)","type":"hexite","timer":"2026-06-06T20:23:38.087Z"},"geometry":{"type":"Point","coordinates":[11567,16866]}},{"type":"Feature","properties":{"name":"Hexite Deposit (N: 6446, E: 3830)","type":"hexite","timer":"2026-06-10T19:11:30.095Z"},"geometry":{"type":"Point","coordinates":[11490,19339]}},{"type":"Feature","properties":{"name":"Hexite Deposit (N: 6146, E: 4640)","type":"hexite","timer":"2026-06-08T10:56:25.244Z"},"geometry":{"type":"Point","coordinates":[13920,18437]}},{"type":"Feature","properties":{"name":"Hexite Deposit (N: 5316, E: 4498)","type":"hexite"},"geometry":{"type":"Point","coordinates":[13494,15948]}},{"type":"Feature","properties":{"name":"Hexite Deposit (N: 7050, E: 4609)","type":"hexite","timer":"2026-06-08T04:35:28.247Z"},"geometry":{"type":"Point","coordinates":[13825,21149]}},{"type":"Feature","properties":{"name":"Hexite Deposit (N: 7253, E: 4047)","type":"hexite"},"geometry":{"type":"Point","coordinates":[12143,21758]}},{"type":"Feature","properties":{"name":"Hexite Deposit (N: 7071, E: 3525)","type":"hexite","timer":"2026-06-11T17:45:27.140Z"},"geometry":{"type":"Point","coordinates":[10575,21212]}},{"type":"Feature","properties":{"name":"Tree of Wisdom (N: 6370, E: 6350)","type":"tree"},"geometry":{"type":"Point","coordinates":[19048,19109]}},{"type":"Feature","properties":{"name":"Hexite Deposit (N: 6225, E: 6298)","type":"hexite","timer":"2026-06-11T16:33:59.072Z"},"geometry":{"type":"Point","coordinates":[18896,18674]}},{"type":"Feature","properties":{"name":"Hexite Deposit (N: 6222, E: 6504)","type":"hexite","timer":"2026-06-05T18:34:19.917Z"},"geometry":{"type":"Point","coordinates":[19510,18665]}},{"type":"Feature","properties":{"name":"Hexite Deposit (N: 6508, E: 6509)","type":"hexite","timer":"2026-06-09T11:15:25.204Z"},"geometry":{"type":"Point","coordinates":[19525,19523]}},{"type":"Feature","properties":{"name":"Hexite Deposit (N: 6547, E: 6367)","type":"hexite","timer":"2026-06-06T21:49:35.766Z"},"geometry":{"type":"Point","coordinates":[19103,19642]}},{"type":"Feature","properties":{"name":"Hexite Deposit (N: 6767, E: 6572)","type":"hexite","timer":"2026-06-09T20:02:30.648Z"},"geometry":{"type":"Point","coordinates":[19717,20302]}},{"type":"Feature","properties":{"name":"Hexite Deposit (N: 6548, E: 6679)","type":"hexite","timer":"2026-06-05T16:09:23.019Z"},"geometry":{"type":"Point","coordinates":[20037,19643]}},{"type":"Feature","properties":{"name":"Hexite Deposit (N: 6322, E: 6826)","type":"hexite"},"geometry":{"type":"Point","coordinates":[20478,18966]}},{"type":"Feature","properties":{"name":"Hexite Deposit (N: 6144, E: 6708)","type":"hexite","timer":"2026-06-07T15:31:32.397Z"},"geometry":{"type":"Point","coordinates":[20124,18433]}},{"type":"Feature","properties":{"name":"Hexite Deposit (N: 5998, E: 6476)","type":"hexite","timer":"2026-06-06T13:08:00.755Z"},"geometry":{"type":"Point","coordinates":[19427,17994]}},{"type":"Feature","properties":{"name":"Hexite Deposit (N: 6071, E: 6257)","type":"hexite","timer":"2026-06-07T19:36:47.971Z"},"geometry":{"type":"Point","coordinates":[18772,18213]}},{"type":"Feature","properties":{"name":"Hexite Deposit (N: 6132, E: 6135)","type":"hexite","timer":"2026-06-08T17:42:53.599Z"},"geometry":{"type":"Point","coordinates":[18405,18395]}},{"type":"Feature","properties":{"name":"Hexite Deposit (N: 6412, E: 6025)","type":"hexite","timer":"2026-06-09T11:34:49.500Z"},"geometry":{"type":"Point","coordinates":[18075,19236]}},{"type":"Feature","properties":{"name":"Hexite Deposit (N: 6572, E: 6065)","type":"hexite","timer":"2026-06-09T09:08:00.584Z"},"geometry":{"type":"Point","coordinates":[18195,19715]}},{"type":"Feature","properties":{"name":"Hexite Deposit (N: 6751, E: 6309)","type":"hexite","timer":"2026-06-09T19:17:56.258Z"},"geometry":{"type":"Point","coordinates":[18928,20254]}},{"type":"Feature","properties":{"name":"Hexite Deposit (N: 5616, E: 9119)","type":"hexite","timer":"2026-06-07T09:51:30.813Z"},"geometry":{"type":"Point","coordinates":[27356,16849]}},{"type":"Feature","properties":{"name":"Hexite Deposit (N: 6060, E: 8598)","type":"hexite","timer":"2026-06-06T06:48:03.386Z"},"geometry":{"type":"Point","coordinates":[25793,18180]}},{"type":"Feature","properties":{"name":"Hexite Deposit (N: 7094, E: 9781)","type":"hexite","timer":"2026-06-05T13:55:58.264Z"},"geometry":{"type":"Point","coordinates":[29343,21283]}},{"type":"Feature","properties":{"name":"Hexite Deposit (N: 6158, E: 8174)","type":"hexite","timer":"2026-06-07T00:05:53.509Z"},"geometry":{"type":"Point","coordinates":[24521,18473]}},{"type":"Feature","properties":{"name":"Hexite Deposit (N: 5593, E: 9647)","type":"hexite","timer":"2026-06-05T21:32:57.961Z"},"geometry":{"type":"Point","coordinates":[28942,16780]}},{"type":"Feature","properties":{"name":"Hexite Deposit (N: 5627, E: 8268)","type":"hexite","timer":"2026-06-06T00:32:32.352Z"},"geometry":{"type":"Point","coordinates":[24806,16881]}},{"type":"Feature","properties":{"name":"Hexite Deposit (N: 6387, E: 9871)","type":"hexite","timer":"2026-06-10T12:55:21.850Z"},"geometry":{"type":"Point","coordinates":[29614,19162]}},{"type":"Feature","properties":{"name":"Hexite Deposit (N: 6746, E: 9150)","type":"hexite","timer":"2026-06-10T05:27:49.185Z"},"geometry":{"type":"Point","coordinates":[27448,20237]}},{"type":"Feature","properties":{"name":"Hexite Deposit (N: 6997, E: 8435)","type":"hexite","timer":"2026-06-07T23:10:47.859Z"},"geometry":{"type":"Point","coordinates":[25307,20992]}},{"type":"Feature","properties":{"name":"Hexite Deposit (N: 7407, E: 8954)","type":"hexite","timer":"2026-06-06T00:18:38.006Z"},"geometry":{"type":"Point","coordinates":[26864,22220]}},{"type":"Feature","properties":{"name":"Hexite Deposit (N: 9174, E: 4801)","type":"hexite","timer":"2026-06-10T03:20:20.234Z"},"geometry":{"type":"Point","coordinates":[14403,27521]}},{"type":"Feature","properties":{"name":"Hexite Deposit (N: 8551, E: 3481)","type":"hexite"},"geometry":{"type":"Point","coordinates":[10446,25654]}},{"type":"Feature","properties":{"name":"Hexite Deposit (N: 9785, E: 4082)","type":"hexite","timer":"2026-06-10T00:11:05.153Z"},"geometry":{"type":"Point","coordinates":[12249,29356]}},{"type":"Feature","properties":{"name":"Hexite Deposit (N: 9600, E: 3605)","type":"hexite"},"geometry":{"type":"Point","coordinates":[10814,28799]}},{"type":"Feature","properties":{"name":"Hexite Deposit (N: 9336, E: 3213)","type":"hexite","timer":"2026-06-07T19:38:22.680Z"},"geometry":{"type":"Point","coordinates":[9640,28009]}},{"type":"Feature","properties":{"name":"Hexite Deposit (N: 10028, E: 4707)","type":"hexite","timer":"2026-06-12T03:42:08.408Z"},"geometry":{"type":"Point","coordinates":[14120,30084]}},{"type":"Feature","properties":{"name":"Hexite Deposit (N: 8065, E: 2971)","type":"hexite"},"geometry":{"type":"Point","coordinates":[8916,24196]}},{"type":"Feature","properties":{"name":"Hexite Deposit (N: 8108, E: 4017)","type":"hexite","timer":"2026-06-07T20:14:34.438Z"},"geometry":{"type":"Point","coordinates":[12051,24324]}},{"type":"Feature","properties":{"name":"Hexite Deposit (N: 8599, E: 4437)","type":"hexite"},"geometry":{"type":"Point","coordinates":[13312,25796]}},{"type":"Feature","properties":{"name":"Hexite Deposit (N: 8437, E: 5020)","type":"hexite","timer":"2026-06-06T07:53:43.879Z"},"geometry":{"type":"Point","coordinates":[15062,25310]}},{"type":"Feature","properties":{"name":"Hexite Deposit (N: 8084, E: 5391)","type":"hexite","timer":"2026-06-10T16:06:58.126Z"},"geometry":{"type":"Point","coordinates":[16172,24253]}},{"type":"Feature","properties":{"name":"Hexite Deposit (N: 9731, E: 6719)","type":"hexite","timer":"2026-06-06T20:09:52.337Z"},"geometry":{"type":"Point","coordinates":[20157,29193]}},{"type":"Feature","properties":{"name":"Hexite Deposit (N: 9607, E: 6203)","type":"hexite","timer":"2026-06-06T17:38:55.325Z"},"geometry":{"type":"Point","coordinates":[18610,28821]}},{"type":"Feature","properties":{"name":"Hexite Deposit (N: 9223, E: 5418)","type":"hexite"},"geometry":{"type":"Point","coordinates":[16256,27670]}},{"type":"Feature","properties":{"name":"Hexite Deposit (N: 9923, E: 5491)","type":"hexite","timer":"2026-06-05T08:06:19.251Z"},"geometry":{"type":"Point","coordinates":[16475,29769]}},{"type":"Feature","properties":{"name":"Hexite Deposit (N: 8397, E: 5606)","type":"hexite","timer":"2026-06-10T20:21:03.060Z"},"geometry":{"type":"Point","coordinates":[16818,25191]}},{"type":"Feature","properties":{"name":"Hexite Deposit (N: 8813, E: 6038)","type":"hexite","timer":"2026-06-09T21:42:18.223Z"},"geometry":{"type":"Point","coordinates":[18115,26440]}},{"type":"Feature","properties":{"name":"Hexite Deposit (N: 9393, E: 7468)","type":"hexite","timer":"2026-06-07T11:59:27.962Z"},"geometry":{"type":"Point","coordinates":[22405,28178]}},{"type":"Feature","properties":{"name":"Hexite Deposit (N: 7913, E: 6801)","type":"hexite","timer":"2026-06-07T11:37:35.272Z"},"geometry":{"type":"Point","coordinates":[20404,23739]}},{"type":"Feature","properties":{"name":"Hexite Deposit (N: 8434, E: 7390)","type":"hexite","timer":"2026-06-05T18:26:12.127Z"},"geometry":{"type":"Point","coordinates":[22170,25303]}},{"type":"Feature","properties":{"name":"Hexite Deposit (N: 8647, E: 10025)","type":"hexite","timer":"2026-06-07T20:55:48.473Z"},"geometry":{"type":"Point","coordinates":[30076,25940]}},{"type":"Feature","properties":{"name":"Hexite Deposit (N: 9286, E: 8082)","type":"hexite","timer":"2026-06-06T08:38:21.229Z"},"geometry":{"type":"Point","coordinates":[24245,27859]}},{"type":"Feature","properties":{"name":"Hexite Deposit (N: 8465, E: 9176)","type":"hexite","timer":"2026-06-12T16:04:08.897Z"},"geometry":{"type":"Point","coordinates":[27528,25394]}},{"type":"Feature","properties":{"name":"Hexite Deposit (N: 7893, E: 9188)","type":"hexite","timer":"2026-06-08T12:49:16.946Z"},"geometry":{"type":"Point","coordinates":[27564,23679]}},{"type":"Feature","properties":{"name":"Hexite Deposit (N: 9653, E: 9840)","type":"hexite","timer":"2026-06-08T19:23:57.013Z"},"geometry":{"type":"Point","coordinates":[29522,28958]}},{"type":"Feature","properties":{"name":"Hexite Deposit (N: 8205, E: 9649)","type":"hexite","timer":"2026-06-07T21:58:36.045Z"},"geometry":{"type":"Point","coordinates":[28948,24615]}},{"type":"Feature","properties":{"name":"Hexite Deposit (N: 8544, E: 8170)","type":"hexite","timer":"2026-06-05T21:01:19.687Z"},"geometry":{"type":"Point","coordinates":[24509,25633]}},{"type":"Feature","properties":{"name":"Hexite Deposit (N: 9546, E: 9252)","type":"hexite","timer":"2026-06-08T23:08:26.532Z"},"geometry":{"type":"Point","coordinates":[27755,28639]}},{"type":"Feature","properties":{"name":"Hexite Deposit (N: 9900, E: 8529)","type":"hexite"},"geometry":{"type":"Point","coordinates":[25586,29700]}},{"type":"Feature","properties":{"name":"Hexite Deposit (N: 9058, E: 8676)","type":"hexite","timer":"2026-06-12T05:44:34.980Z"},"geometry":{"type":"Point","coordinates":[26027,27175]}}]