[{"type":"Feature","properties":{"name":"Hermit Crab Den (N: 1735, E: 6644)","popupText":"Hermit Crab Den (N: 1735, E: 6644)","iconName":"hermit-crab","iconSize":[25,25]},"geometry":{"type":"Point","coordinates":[19934,5206]}},{"type":"Feature","properties":{"name":"Hermit Crab Den (N: 1105, E: 7123)","popupText":"Hermit Crab Den (N: 1105, E: 7123)","iconName":"hermit-crab","iconSize":[25,25]},"geometry":{"type":"Point","coordinates":[21369,3314]}},{"type":"Feature","properties":{"name":"Hermit Crab Den (N: 1328, E: 5631)","popupText":"Hermit Crab Den (N: 1328, E: 5631)","iconName":"hermit-crab","iconSize":[25,25]},"geometry":{"type":"Point","coordinates":[16894,3985]}},{"type":"Feature","properties":{"name":"Volcanic Geyser (N: 493, E: 6482)","popupText":"Volcanic Geyser (N: 493, E: 6482)","iconName":"volcanic-geyser"},"geometry":{"type":"Point","coordinates":[19447,1479]}},{"type":"Feature","properties":{"name":"Volcanic Geyser (N: 348, E: 6436)","popupText":"Volcanic Geyser (N: 348, E: 6436)","iconName":"volcanic-geyser"},"geometry":{"type":"Point","coordinates":[19308,1044]}},{"type":"Feature","properties":{"name":"Volcanic Geyser (N: 642, E: 6550)","popupText":"Volcanic Geyser (N: 642, E: 6550)","iconName":"volcanic-geyser"},"geometry":{"type":"Point","coordinates":[19650,1926]}},{"type":"Feature","properties":{"name":"Hermit Crab Den (N: 6913, E: 2121)","popupText":"Hermit Crab Den (N: 6913, E: 2121)","iconName":"hermit-crab","iconSize":[25,25]},"geometry":{"type":"Point","coordinates":[6364,20738]}},{"type":"Feature","properties":{"name":"Hermit Crab Den (N: 6968, E: 1165)","popupText":"Hermit Crab Den (N: 6968, E: 1165)","iconName":"hermit-crab","iconSize":[25,25]},"geometry":{"type":"Point","coordinates":[3495,20905]}},{"type":"Feature","properties":{"name":"Hermit Crab Den (N: 5825, E: 1506)","popupText":"Hermit Crab Den (N: 5825, E: 1506)","iconName":"hermit-crab","iconSize":[25,25]},"geometry":{"type":"Point","coordinates":[4518,17474]}},{"type":"Feature","properties":{"name":"Volcanic Geyser (N: 5707, E: 667)","popupText":"Volcanic Geyser (N: 5707, E: 667)","iconName":"volcanic-geyser"},"geometry":{"type":"Point","coordinates":[2002,17121]}},{"type":"Feature","properties":{"name":"Volcanic Geyser (N: 5772, E: 495)","popupText":"Volcanic Geyser (N: 5772, E: 495)","iconName":"volcanic-geyser"},"geometry":{"type":"Point","coordinates":[1485,17316]}},{"type":"Feature","properties":{"name":"Volcanic Geyser (N: 5852, E: 691)","popupText":"Volcanic Geyser (N: 5852, E: 691)","iconName":"volcanic-geyser"},"geometry":{"type":"Point","coordinates":[2073,17556]}},{"type":"Feature","properties":{"name":"Hermit Crab Den (N: 6102, E: 10804)","popupText":"Hermit Crab Den (N: 6102, E: 10804)","iconName":"hermit-crab","iconSize":[25,25]},"geometry":{"type":"Point","coordinates":[32411,18305]}},{"type":"Feature","properties":{"name":"Hermit Crab Den (N: 5587, E: 11246)","popupText":"Hermit Crab Den (N: 5587, E: 11246)","iconName":"hermit-crab","iconSize":[25,25]},"geometry":{"type":"Point","coordinates":[33740,16761]}},{"type":"Feature","properties":{"name":"Hermit Crab Den (N: 6968, E: 11727)","popupText":"Hermit Crab Den (N: 6968, E: 11727)","iconName":"hermit-crab","iconSize":[25,25]},"geometry":{"type":"Point","coordinates":[35182,20905]}},{"type":"Feature","properties":{"name":"Volcanic Geyser (N: 5821, E: 12266)","popupText":"Volcanic Geyser (N: 5821, E: 12266)","iconName":"volcanic-geyser"},"geometry":{"type":"Point","coordinates":[36800,17463]}},{"type":"Feature","properties":{"name":"Volcanic Geyser (N: 5635, E: 12418)","popupText":"Volcanic Geyser (N: 5635, E: 12418)","iconName":"volcanic-geyser"},"geometry":{"type":"Point","coordinates":[37255,16906]}},{"type":"Feature","properties":{"name":"Volcanic Geyser (N: 5864, E: 12574)","popupText":"Volcanic Geyser (N: 5864, E: 12574)","iconName":"volcanic-geyser"},"geometry":{"type":"Point","coordinates":[37720,17591]}},{"type":"Feature","properties":{"name":"Hermit Crab Den (N: 10794, E: 6479)","popupText":"Hermit Crab Den (N: 10794, E: 6479)","iconName":"hermit-crab","iconSize":[25,25]},"geometry":{"type":"Point","coordinates":[19438,32383]}},{"type":"Feature","properties":{"name":"Hermit Crab Den (N: 11088, E: 6960)","popupText":"Hermit Crab Den (N: 11088, E: 6960)","iconName":"hermit-crab","iconSize":[25,25]},"geometry":{"type":"Point","coordinates":[20880,33265]}},{"type":"Feature","properties":{"name":"Hermit Crab Den (N: 11602, E: 6077)","popupText":"Hermit Crab Den (N: 11602, E: 6077)","iconName":"hermit-crab","iconSize":[25,25]},"geometry":{"type":"Point","coordinates":[18230,34806]}},{"type":"Feature","properties":{"name":"Volcanic Geyser (N: 12324, E: 5798)","popupText":"Volcanic Geyser (N: 12324, E: 5798)","iconName":"volcanic-geyser"},"geometry":{"type":"Point","coordinates":[17394,36972]}},{"type":"Feature","properties":{"name":"Volcanic Geyser (N: 12186, E: 5690)","popupText":"Volcanic Geyser (N: 12186, E: 5690)","iconName":"volcanic-geyser"},"geometry":{"type":"Point","coordinates":[17069,36557]}},{"type":"Feature","properties":{"name":"Volcanic Geyser (N: 12320, E: 5675)","popupText":"Volcanic Geyser (N: 12320, E: 5675)","iconName":"volcanic-geyser"},"geometry":{"type":"Point","coordinates":[17025,36959]}}]