[{"type":"Feature","properties":{"name":"Hexite Deposit (N: 3972, E: 4774)","type":"hexite","timer":"2026-04-23T02:12:11.040Z"},"geometry":{"type":"Point","coordinates":[14323,11917]}},{"type":"Feature","properties":{"name":"Hexite Deposit (N: 3014, E: 4142)","type":"hexite","timer":"2026-04-28T11:53:44.623Z"},"geometry":{"type":"Point","coordinates":[12426,9043]}},{"type":"Feature","properties":{"name":"Hexite Deposit (N: 3362, E: 3687)","type":"hexite","timer":"2026-04-29T09:42:43.772Z"},"geometry":{"type":"Point","coordinates":[11061,10087]}},{"type":"Feature","properties":{"name":"Hexite Deposit (N: 2794, E: 2882)","type":"hexite","timer":"2026-04-27T19:25:56.438Z"},"geometry":{"type":"Point","coordinates":[8647,8382]}},{"type":"Feature","properties":{"name":"Hexite Deposit (N: 4555, E: 2820)","type":"hexite"},"geometry":{"type":"Point","coordinates":[8462,13666]}},{"type":"Feature","properties":{"name":"Hexite Deposit (N: 4902, E: 4657)","type":"hexite"},"geometry":{"type":"Point","coordinates":[13970,14707]}},{"type":"Feature","properties":{"name":"Hexite Deposit (N: 3399, E: 4748)","type":"hexite","timer":"2026-04-28T00:04:43.123Z"},"geometry":{"type":"Point","coordinates":[14247,10198]}},{"type":"Feature","properties":{"name":"Hexite Deposit (N: 3879, E: 2893)","type":"hexite","timer":"2026-04-28T08:53:30.444Z"},"geometry":{"type":"Point","coordinates":[8682,11638]}},{"type":"Feature","properties":{"name":"Hexite Deposit (N: 4181, E: 4279)","type":"hexite","timer":"2026-04-26T17:24:08.003Z"},"geometry":{"type":"Point","coordinates":[12838,12542]}},{"type":"Feature","properties":{"name":"Hexite Deposit (N: 4598, E: 3471)","type":"hexite","timer":"2026-04-25T20:16:35.198Z"},"geometry":{"type":"Point","coordinates":[10413,13795]}},{"type":"Feature","properties":{"name":"Hexite Deposit (N: 4361, E: 7208)","type":"hexite","timer":"2026-04-26T21:07:22.693Z"},"geometry":{"type":"Point","coordinates":[21626,13084]}},{"type":"Feature","properties":{"name":"Hexite Deposit (N: 3140, E: 6551)","type":"hexite","timer":"2026-04-28T20:40:17.176Z"},"geometry":{"type":"Point","coordinates":[19654,9421]}},{"type":"Feature","properties":{"name":"Hexite Deposit (N: 3548, E: 5289)","type":"hexite","timer":"2026-04-23T06:17:50.332Z"},"geometry":{"type":"Point","coordinates":[15866,10643]}},{"type":"Feature","properties":{"name":"Hexite Deposit (N: 4675, E: 6067)","type":"hexite","timer":"2026-04-24T18:27:24.863Z"},"geometry":{"type":"Point","coordinates":[18203,14026]}},{"type":"Feature","properties":{"name":"Hexite Deposit (N: 3205, E: 7340)","type":"hexite","timer":"2026-04-24T20:34:20.931Z"},"geometry":{"type":"Point","coordinates":[22022,9616]}},{"type":"Feature","properties":{"name":"Hexite Deposit (N: 3794, E: 7532)","type":"hexite","timer":"2026-04-25T11:01:26.042Z"},"geometry":{"type":"Point","coordinates":[22595,11383]}},{"type":"Feature","properties":{"name":"Hexite Deposit (N: 4926, E: 6725)","type":"hexite","timer":"2026-04-28T02:16:42.995Z"},"geometry":{"type":"Point","coordinates":[20175,14778]}},{"type":"Feature","properties":{"name":"Hexite Deposit (N: 4216, E: 5489)","type":"hexite","timer":"2026-04-26T23:30:48.935Z"},"geometry":{"type":"Point","coordinates":[16465,12647]}},{"type":"Feature","properties":{"name":"Hexite Deposit (N: 3176, E: 5747)","type":"hexite","timer":"2026-04-25T18:44:01.327Z"},"geometry":{"type":"Point","coordinates":[17241,9529]}},{"type":"Feature","properties":{"name":"Hexite Deposit (N: 3885, E: 6409)","type":"hexite","timer":"2026-04-25T11:08:04.578Z"},"geometry":{"type":"Point","coordinates":[19228,11655]}},{"type":"Feature","properties":{"name":"Hexite Deposit (N: 3237, E: 8533)","type":"hexite","timer":"2026-04-27T09:50:15.006Z"},"geometry":{"type":"Point","coordinates":[25601,9710]}},{"type":"Feature","properties":{"name":"Hexite Deposit (N: 3956, E: 9090)","type":"hexite","timer":"2026-04-24T14:11:00.500Z"},"geometry":{"type":"Point","coordinates":[27270,11869]}},{"type":"Feature","properties":{"name":"Hexite Deposit (N: 3189, E: 9226)","type":"hexite","timer":"2026-04-24T15:21:01.770Z"},"geometry":{"type":"Point","coordinates":[27678,9567]}},{"type":"Feature","properties":{"name":"Hexite Deposit (N: 4910, E: 8115)","type":"hexite","timer":"2026-04-26T21:44:37.993Z"},"geometry":{"type":"Point","coordinates":[24344,14731]}},{"type":"Feature","properties":{"name":"Hexite Deposit (N: 3637, E: 7925)","type":"hexite","timer":"2026-04-23T02:06:03.794Z"},"geometry":{"type":"Point","coordinates":[23776,10912]}},{"type":"Feature","properties":{"name":"Hexite Deposit (N: 3224, E: 9950)","type":"hexite","timer":"2026-04-23T22:44:35.934Z"},"geometry":{"type":"Point","coordinates":[29850,9671]}},{"type":"Feature","properties":{"name":"Hexite Deposit (N: 4125, E: 9816)","type":"hexite","timer":"2026-04-23T16:37:55.746Z"},"geometry":{"type":"Point","coordinates":[29448,12374]}},{"type":"Feature","properties":{"name":"Hexite Deposit (N: 2701, E: 8112)","type":"hexite","timer":"2026-04-26T10:11:56.333Z"},"geometry":{"type":"Point","coordinates":[24338,8104]}},{"type":"Feature","properties":{"name":"Hexite Deposit (N: 4339, E: 8316)","type":"hexite","timer":"2026-04-26T08:37:46.195Z"},"geometry":{"type":"Point","coordinates":[24949,13016]}},{"type":"Feature","properties":{"name":"Hexite Deposit (N: 4592, E: 9483)","type":"hexite","timer":"2026-04-26T17:18:08.807Z"},"geometry":{"type":"Point","coordinates":[28448,13776]}},{"type":"Feature","properties":{"name":"Hexite Deposit (N: 5965, E: 2959)","type":"hexite","timer":"2026-04-23T10:19:27.530Z"},"geometry":{"type":"Point","coordinates":[8879,17896]}},{"type":"Feature","properties":{"name":"Hexite Deposit (N: 7220, E: 3090)","type":"hexite","timer":"2026-04-23T08:00:32.980Z"},"geometry":{"type":"Point","coordinates":[9270,21661]}},{"type":"Feature","properties":{"name":"Hexite Deposit (N: 6706, E: 2993)","type":"hexite","timer":"2026-04-23T03:02:04.953Z"},"geometry":{"type":"Point","coordinates":[8977,20117]}},{"type":"Feature","properties":{"name":"Hexite Deposit (N: 5622, E: 3856)","type":"hexite"},"geometry":{"type":"Point","coordinates":[11567,16866]}},{"type":"Feature","properties":{"name":"Hexite Deposit (N: 6446, E: 3830)","type":"hexite","timer":"2026-04-25T09:34:53.494Z"},"geometry":{"type":"Point","coordinates":[11490,19339]}},{"type":"Feature","properties":{"name":"Hexite Deposit (N: 6146, E: 4640)","type":"hexite","timer":"2026-04-27T16:59:31.412Z"},"geometry":{"type":"Point","coordinates":[13920,18437]}},{"type":"Feature","properties":{"name":"Hexite Deposit (N: 5316, E: 4498)","type":"hexite"},"geometry":{"type":"Point","coordinates":[13494,15948]}},{"type":"Feature","properties":{"name":"Hexite Deposit (N: 7050, E: 4609)","type":"hexite","timer":"2026-04-27T12:59:49.826Z"},"geometry":{"type":"Point","coordinates":[13825,21149]}},{"type":"Feature","properties":{"name":"Hexite Deposit (N: 7253, E: 4047)","type":"hexite","timer":"2026-04-26T03:16:13.790Z"},"geometry":{"type":"Point","coordinates":[12143,21758]}},{"type":"Feature","properties":{"name":"Hexite Deposit (N: 7071, E: 3525)","type":"hexite","timer":"2026-04-25T19:59:53.644Z"},"geometry":{"type":"Point","coordinates":[10575,21212]}},{"type":"Feature","properties":{"name":"Tree of Wisdom (N: 6370, E: 6350)","type":"tree"},"geometry":{"type":"Point","coordinates":[19048,19109]}},{"type":"Feature","properties":{"name":"Hexite Deposit (N: 6225, E: 6298)","type":"hexite","timer":"2026-04-25T08:23:15.678Z"},"geometry":{"type":"Point","coordinates":[18896,18674]}},{"type":"Feature","properties":{"name":"Hexite Deposit (N: 6222, E: 6504)","type":"hexite","timer":"2026-04-25T05:36:18.772Z"},"geometry":{"type":"Point","coordinates":[19510,18665]}},{"type":"Feature","properties":{"name":"Hexite Deposit (N: 6508, E: 6509)","type":"hexite","timer":"2026-04-25T00:03:06.693Z"},"geometry":{"type":"Point","coordinates":[19525,19523]}},{"type":"Feature","properties":{"name":"Hexite Deposit (N: 6547, E: 6367)","type":"hexite","timer":"2026-04-24T23:30:58.606Z"},"geometry":{"type":"Point","coordinates":[19103,19642]}},{"type":"Feature","properties":{"name":"Hexite Deposit (N: 6767, E: 6572)","type":"hexite","timer":"2026-04-23T03:05:28.037Z"},"geometry":{"type":"Point","coordinates":[19717,20302]}},{"type":"Feature","properties":{"name":"Hexite Deposit (N: 6548, E: 6679)","type":"hexite","timer":"2026-04-23T20:20:48.731Z"},"geometry":{"type":"Point","coordinates":[20037,19643]}},{"type":"Feature","properties":{"name":"Hexite Deposit (N: 6322, E: 6826)","type":"hexite"},"geometry":{"type":"Point","coordinates":[20478,18966]}},{"type":"Feature","properties":{"name":"Hexite Deposit (N: 6144, E: 6708)","type":"hexite","timer":"2026-04-28T09:07:34.605Z"},"geometry":{"type":"Point","coordinates":[20124,18433]}},{"type":"Feature","properties":{"name":"Hexite Deposit (N: 5998, E: 6476)","type":"hexite","timer":"2026-04-28T12:21:22.186Z"},"geometry":{"type":"Point","coordinates":[19427,17994]}},{"type":"Feature","properties":{"name":"Hexite Deposit (N: 6071, E: 6257)","type":"hexite","timer":"2026-04-27T21:35:57.111Z"},"geometry":{"type":"Point","coordinates":[18772,18213]}},{"type":"Feature","properties":{"name":"Hexite Deposit (N: 6132, E: 6135)","type":"hexite","timer":"2026-04-27T08:41:11.827Z"},"geometry":{"type":"Point","coordinates":[18405,18395]}},{"type":"Feature","properties":{"name":"Hexite Deposit (N: 6412, E: 6025)","type":"hexite","timer":"2026-04-26T05:01:03.606Z"},"geometry":{"type":"Point","coordinates":[18075,19236]}},{"type":"Feature","properties":{"name":"Hexite Deposit (N: 6572, E: 6065)","type":"hexite","timer":"2026-04-25T18:57:53.745Z"},"geometry":{"type":"Point","coordinates":[18195,19715]}},{"type":"Feature","properties":{"name":"Hexite Deposit (N: 6751, E: 6309)","type":"hexite","timer":"2026-04-24T01:46:12.440Z"},"geometry":{"type":"Point","coordinates":[18928,20254]}},{"type":"Feature","properties":{"name":"Hexite Deposit (N: 5616, E: 9119)","type":"hexite","timer":"2026-04-23T21:00:21.545Z"},"geometry":{"type":"Point","coordinates":[27356,16849]}},{"type":"Feature","properties":{"name":"Hexite Deposit (N: 6060, E: 8598)","type":"hexite","timer":"2026-04-23T13:12:11.310Z"},"geometry":{"type":"Point","coordinates":[25793,18180]}},{"type":"Feature","properties":{"name":"Hexite Deposit (N: 7094, E: 9781)","type":"hexite","timer":"2026-04-29T19:17:28.835Z"},"geometry":{"type":"Point","coordinates":[29343,21283]}},{"type":"Feature","properties":{"name":"Hexite Deposit (N: 6158, E: 8174)","type":"hexite","timer":"2026-04-24T03:56:14.801Z"},"geometry":{"type":"Point","coordinates":[24521,18473]}},{"type":"Feature","properties":{"name":"Hexite Deposit (N: 5593, E: 9647)","type":"hexite","timer":"2026-04-30T12:13:08.033Z"},"geometry":{"type":"Point","coordinates":[28942,16780]}},{"type":"Feature","properties":{"name":"Hexite Deposit (N: 5627, E: 8268)","type":"hexite","timer":"2026-04-28T05:01:23.260Z"},"geometry":{"type":"Point","coordinates":[24806,16881]}},{"type":"Feature","properties":{"name":"Hexite Deposit (N: 6387, E: 9871)","type":"hexite","timer":"2026-04-26T06:43:23.437Z"},"geometry":{"type":"Point","coordinates":[29614,19162]}},{"type":"Feature","properties":{"name":"Hexite Deposit (N: 6746, E: 9150)","type":"hexite","timer":"2026-04-26T23:28:12.892Z"},"geometry":{"type":"Point","coordinates":[27448,20237]}},{"type":"Feature","properties":{"name":"Hexite Deposit (N: 6997, E: 8435)","type":"hexite","timer":"2026-04-25T09:38:56.647Z"},"geometry":{"type":"Point","coordinates":[25307,20992]}},{"type":"Feature","properties":{"name":"Hexite Deposit (N: 7407, E: 8954)","type":"hexite","timer":"2026-04-28T12:41:08.880Z"},"geometry":{"type":"Point","coordinates":[26864,22220]}},{"type":"Feature","properties":{"name":"Hexite Deposit (N: 9174, E: 4801)","type":"hexite","timer":"2026-04-25T19:51:46.200Z"},"geometry":{"type":"Point","coordinates":[14403,27521]}},{"type":"Feature","properties":{"name":"Hexite Deposit (N: 8551, E: 3481)","type":"hexite","timer":"2026-04-29T11:53:45.324Z"},"geometry":{"type":"Point","coordinates":[10446,25654]}},{"type":"Feature","properties":{"name":"Hexite Deposit (N: 9785, E: 4082)","type":"hexite","timer":"2026-04-27T03:51:33.293Z"},"geometry":{"type":"Point","coordinates":[12249,29356]}},{"type":"Feature","properties":{"name":"Hexite Deposit (N: 9600, E: 3605)","type":"hexite","timer":"2026-04-25T21:20:13.446Z"},"geometry":{"type":"Point","coordinates":[10814,28799]}},{"type":"Feature","properties":{"name":"Hexite Deposit (N: 9336, E: 3213)","type":"hexite","timer":"2026-04-26T02:45:39.036Z"},"geometry":{"type":"Point","coordinates":[9640,28009]}},{"type":"Feature","properties":{"name":"Hexite Deposit (N: 10028, E: 4707)","type":"hexite","timer":"2026-04-30T18:45:25.373Z"},"geometry":{"type":"Point","coordinates":[14120,30084]}},{"type":"Feature","properties":{"name":"Hexite Deposit (N: 8065, E: 2971)","type":"hexite","timer":"2026-04-28T06:55:17.873Z"},"geometry":{"type":"Point","coordinates":[8916,24196]}},{"type":"Feature","properties":{"name":"Hexite Deposit (N: 8108, E: 4017)","type":"hexite","timer":"2026-04-28T04:42:30.240Z"},"geometry":{"type":"Point","coordinates":[12051,24324]}},{"type":"Feature","properties":{"name":"Hexite Deposit (N: 8599, E: 4437)","type":"hexite","timer":"2026-04-25T13:16:21.038Z"},"geometry":{"type":"Point","coordinates":[13312,25796]}},{"type":"Feature","properties":{"name":"Hexite Deposit (N: 8437, E: 5020)","type":"hexite","timer":"2026-04-27T01:37:03.825Z"},"geometry":{"type":"Point","coordinates":[15062,25310]}},{"type":"Feature","properties":{"name":"Hexite Deposit (N: 8084, E: 5391)","type":"hexite","timer":"2026-04-24T11:16:02.120Z"},"geometry":{"type":"Point","coordinates":[16172,24253]}},{"type":"Feature","properties":{"name":"Hexite Deposit (N: 9731, E: 6719)","type":"hexite","timer":"2026-04-29T09:49:07.992Z"},"geometry":{"type":"Point","coordinates":[20157,29193]}},{"type":"Feature","properties":{"name":"Hexite Deposit (N: 9607, E: 6203)","type":"hexite","timer":"2026-04-24T12:33:22.990Z"},"geometry":{"type":"Point","coordinates":[18610,28821]}},{"type":"Feature","properties":{"name":"Hexite Deposit (N: 9223, E: 5418)","type":"hexite","timer":"2026-04-24T05:37:10.177Z"},"geometry":{"type":"Point","coordinates":[16256,27670]}},{"type":"Feature","properties":{"name":"Hexite Deposit (N: 9923, E: 5491)","type":"hexite","timer":"2026-04-27T08:18:51.359Z"},"geometry":{"type":"Point","coordinates":[16475,29769]}},{"type":"Feature","properties":{"name":"Hexite Deposit (N: 8397, E: 5606)","type":"hexite","timer":"2026-04-28T21:53:02.418Z"},"geometry":{"type":"Point","coordinates":[16818,25191]}},{"type":"Feature","properties":{"name":"Hexite Deposit (N: 8813, E: 6038)","type":"hexite","timer":"2026-04-23T09:55:27.954Z"},"geometry":{"type":"Point","coordinates":[18115,26440]}},{"type":"Feature","properties":{"name":"Hexite Deposit (N: 9393, E: 7468)","type":"hexite","timer":"2026-04-25T15:45:49.590Z"},"geometry":{"type":"Point","coordinates":[22405,28178]}},{"type":"Feature","properties":{"name":"Hexite Deposit (N: 7913, E: 6801)","type":"hexite","timer":"2026-04-25T08:31:26.509Z"},"geometry":{"type":"Point","coordinates":[20404,23739]}},{"type":"Feature","properties":{"name":"Hexite Deposit (N: 8434, E: 7390)","type":"hexite","timer":"2026-04-25T01:32:49.395Z"},"geometry":{"type":"Point","coordinates":[22170,25303]}},{"type":"Feature","properties":{"name":"Hexite Deposit (N: 8647, E: 10025)","type":"hexite","timer":"2026-04-24T22:23:15.310Z"},"geometry":{"type":"Point","coordinates":[30076,25940]}},{"type":"Feature","properties":{"name":"Hexite Deposit (N: 9286, E: 8082)","type":"hexite","timer":"2026-04-25T22:53:10.857Z"},"geometry":{"type":"Point","coordinates":[24245,27859]}},{"type":"Feature","properties":{"name":"Hexite Deposit (N: 8465, E: 9176)","type":"hexite","timer":"2026-04-23T15:12:49.508Z"},"geometry":{"type":"Point","coordinates":[27528,25394]}},{"type":"Feature","properties":{"name":"Hexite Deposit (N: 7893, E: 9188)","type":"hexite","timer":"2026-04-28T10:15:02.423Z"},"geometry":{"type":"Point","coordinates":[27564,23679]}},{"type":"Feature","properties":{"name":"Hexite Deposit (N: 9653, E: 9840)","type":"hexite","timer":"2026-04-29T11:00:21.631Z"},"geometry":{"type":"Point","coordinates":[29522,28958]}},{"type":"Feature","properties":{"name":"Hexite Deposit (N: 8205, E: 9649)","type":"hexite","timer":"2026-04-25T00:58:17.928Z"},"geometry":{"type":"Point","coordinates":[28948,24615]}},{"type":"Feature","properties":{"name":"Hexite Deposit (N: 8544, E: 8170)","type":"hexite"},"geometry":{"type":"Point","coordinates":[24509,25633]}},{"type":"Feature","properties":{"name":"Hexite Deposit (N: 9546, E: 9252)","type":"hexite","timer":"2026-04-27T20:50:48.898Z"},"geometry":{"type":"Point","coordinates":[27755,28639]}},{"type":"Feature","properties":{"name":"Hexite Deposit (N: 9900, E: 8529)","type":"hexite","timer":"2026-04-23T06:36:15.259Z"},"geometry":{"type":"Point","coordinates":[25586,29700]}},{"type":"Feature","properties":{"name":"Hexite Deposit (N: 9058, E: 8676)","type":"hexite"},"geometry":{"type":"Point","coordinates":[26027,27175]}}]